name,street_address,city,province,postcode,latitude,longitude,cuisine,phone,website,email,opening_hours,wheelchair,smoking,internet_access,operator,delivery,takeaway
"Pho Com Vietnam","","","","","43.7562693","-79.5189115","vietnamese","","","","","","","","","",""
"Yummy Yok","","","","","43.7562393","-79.5181659","chinese","","","","","","","","","",""
"Sunrise Caribbean Restaurant","","","","","43.7561995","-79.5179433","caribbean","","","","","","","","","",""
"Pho Chay 88","","","","","43.7516126","-79.5153494","vietnamese","","","","","","","","","",""
"Viet Hoa","","","","","43.7520789","-79.5154542","vietnamese","","","","","","","","","",""
"Pizza Studio","105 The Pond Road","Toronto","ON","M3J 0K9","43.769471","-79.5019642","pizza","","","","","","","","","",""
"Sakura Japanese Foods","","","","","43.7744422","-79.5016572","sushi","+1 647-881-9747","","","Mo-Fr 11:00-23:00; Sa-Su 11:00-21:00","yes","","","","",""
"Smoke and Mirrors Gastropub","","","","","43.7963891","-79.5168641","","","","","","","","","","",""
"Plus Istanbul","","","","","43.7954814","-79.5168475","","","","","","","","","","",""
"Aster Garden Restaurant","","","","","43.8202456","-79.5036553","canadian-chinese;chinese","","","","","","","","","",""
"The Spice Room","","","","","43.8223935","-79.5041818","indian","","","","","","","","","",""
"Pizza Hut","10 Jacob Keffer Parkway","Maple","Ontario","","43.8361543","-79.5063555","pizza","","","","","","","","","",""
"La Bella Italia","9300 Keele Street","","","","43.8379125","-79.50922","italian","","","","","","","","","",""
"Eupin Chinese Cuisine","","","","","43.8356404","-79.5094007","chinese","","","","","","","","","",""
"Villa Panini","","","","","43.8544279","-79.5155287","italian","","","","","","","","","",""
"Sen Sushi Japanese Restaurant","","","","","43.8544601","-79.515362","sushi","","","","","","","","","",""
"WaffleU","","","","","43.8543616","-79.5158016","","","","","","","","","","",""
"Pho Mi Viet Thai Restaurant","","","","","43.8542698","-79.5162975","vietnamese;thai","","","","","","","","","",""
"Red Rooster","","","","","43.8542621","-79.5164135","portuguese","","","","","","","","","",""
"Picollo Pease","","","","","43.8546929","-79.5152963","italian","","","","","","","","","",""
"Farro Ristorante","","","","","43.8546196","-79.5146215","italian","","","","","","","","","",""
"Big Bone BBQ","","","","","43.8558313","-79.5135457","barbecue","","","","","","","","","",""
"Maple Garden Chinese Restaurant","10065 Keele Street","Maple","Ontario","","43.856596","-79.512473","canadian-chinese;chinese","+1 905-832-9252","https://www.maplegardenchinesefood.com/","","Tu-Su 11:00-21:00","","","","","yes","yes"
"9baci","","","","","43.8605478","-79.5142232","italian","","","","Tu-Th,Su 11:30-21:30; Fr,Sa 11:30-22:30","","","","","",""
"Eggsmart","190 McNaughton Road","Maple","Ontario","L6A 4E2","43.8627733","-79.5015918","breakfast","+19053032134","https://eggsmart.com","","Mo-Fr 07:00-15:00; Sa-Su 07:00-16:00","","","","","","yes"
"Caribbean Heat","","","","","43.7645627","-79.4897725","caribbean","","","","","","","","","",""
"Slam Grill Restaurant & Bar","3685 Keele Street","North York","","M3J 3H6","43.7539282","-79.4880289","grill","","","","Mo-Fr 10:00-19:00; Sa-Su 09:00-18:00","","","","","",""
"Encore Hakka","","","","","43.7544676","-79.4876512","chinese","","","","","","","","","",""
"Piccola Citta","","","","","43.7538438","-79.4880016","","","","","","","","","","",""
"Willy's Jerk","3889 Keele Street","North York","ON","M3J 1N6","43.7617921","-79.4899577","caribbean","","","","","","","","","",""
"Panchita’s Kitchen and Bakery","1300 Finch Avenue West","North York","ON","M3J 3K2","43.7646236","-79.4893562","","","","","","","","","","",""
"Pho Nobu Restaurant","","","","","43.7633373","-79.4899384","vietnamese","","","","","","","","","",""
"Pho Lien Hung","","","","","43.7644303","-79.4894036","vietnamese","","","","","","","","","",""
"J's Bar & Restaurant","","","","","43.7654914","-79.4894744","","","","","","","","","","",""
"Tender Shawarma & Grill","","","","","43.7619239","-79.4901087","shawarma","","","","","","","","","",""
"Thai Bamboo","","","","","43.7826883","-79.4915911","thai","","","","","","","","","",""
"Sunnyside Grill","2777 Steeles Avenue West","North York","","","43.7821692","-79.4904138","","","","","","","","","","",""
"Beijing Sung","2150 Steeles Avenue West","Vaughan","","","43.7829024","-79.4908056","chinese","","","","","","","","","",""
"Tatiana Restaurant and Banquet Hall","2180 Steeles Avenue West","Vaughan","","L4K 2Z5","43.7823836","-79.4937091","","+1-905-761-1028","http://tatianabanquethall.com/","","","","","","","",""
"Mimino Restaurant","","","","","43.7823333","-79.4935348","georgian","","","","","","","","","",""
"Tin Tin Congee","4205 Keele Street","North York","ON","M3J 3T8","43.7739262","-79.4922161","chinese","","","","","","","","","",""
"Genij Sushi","","","","","43.7818353","-79.4917545","sushi","","","","","","","","","",""
"Sandra's Italian Kitchen","","","","","43.7818864","-79.4914356","italian","","","","","","","","","",""
"Pho Linh","2100 Tandem Road","","","","43.7831792","-79.489828","vietnamese","","","","","","","","","",""
"Royal Jade","","","","","43.7831469","-79.4899374","chinese","","","","","","","","","",""
"Caspi","","","","","43.7822788","-79.4893552","italian","","","","","","","","","",""
"Suliko Restaurant","","","","","43.7856836","-79.4807216","georgian","","","","","","","","","",""
"Lena's Roti & Doubles","4207 Keele street","","","","43.7734268","-79.4930207","","+14167927575","","","Mo-Fr 10:00-22:00; Sa, Su 09:00-22:00","","","","","",""
"Bosphorus","4205 Keele Street","North York","","M3J 3T8","43.7734613","-79.4920327","turkish","","","","","","","","","","yes"
"Vizavi","2150 Steeles Avenue West","Vaughan","Ontario","","43.7833446","-79.4909596","european;russian","+1-905-760-3929","https://vizavirestaurant.com/","","","","","","","",""
"Top Gun Burger","","","","","43.7965184","-79.4978303","","","","","","","","","","","yes"
"The Chef Upstairs","","","","","43.8078595","-79.4839554","","","","","","","","","","",""
"Hank Daddy's Barbeque","7777 Keele Street","Concord","Ontario","","43.8019275","-79.4990713","barbecue","","","","","","","","","",""
"Mandi Kebab Grill","","","","","43.802092","-79.4953802","chinese","","","","","","","","","",""
"Kotsy's","","","","","43.8022032","-79.4946284","breakfast","","","","","","","","","",""
"Aragvi Restaurant","","","","","43.8024437","-79.4919313","georgian","","","","","","","","","",""
"Sushi Land","","","","","43.7964438","-79.4977548","sushi","","","","","","","","","",""
"Park Place Restaurant","","","","","43.8286258","-79.4811697","","","","","","","","","","",""
"Dante's Pizzeria","","","","","43.8278532","-79.4805587","pizza","","","","","","","","","",""
"Mr. Nick's Grill","","","","","43.8215984","-79.4915738","canadian","","","","","","","","","",""
"Levetto","9001 Dufferin Street","Thornhill","Ontario","L4J 0H7","43.8364329","-79.4808357","italian","+1-905-553-6400","https://levetto.com/","info@levetto.com","Mo-Th 11:00-21:00, Fr-Sa 11:00-21:30, Su 11:00-21:00","","no","","","yes",""
"Mister Laffa Shawarma","9001 Dufferin Street","Thornhill","Ontario","L4J 0H7","43.8364392","-79.4807568","shawarma;middle_eastern","+1 9057649191","https://misterlaffa.com/","hello@misterlaffa.com","Mo-Fr 11:00-21:00, Sa 12:00-21:00","","","","","",""
"Taigi Japan House","1430 Major MacKenzie Drive West","Maple","Ontario","L6A 4H6","43.8621588","-79.4856477","japanese","","","","","","","","","",""
"My Roti Place","1430 Major MacKenzie Drive West","Maple","Ontario","L6A 4H6","43.8622516","-79.4861224","indian","","","","","","","","","",""
"Sunset Grill","1430 Major MacKenzie Drive West","Maple","Ontario","L6A 4H6","43.8622922","-79.4863397","american","","","","","","","","","",""
"Sarko","1480 Major MacKenzie Drive West","Maple","Ontario","L6A 4H6","43.8628685","-79.4872999","","","","","","","","","","",""
"Chuck's Roadhouse","1480 Major MacKenzie Drive West","Maple","Ontario","L6A 4H6","43.8631867","-79.4874027","burger;steak_house","","","","","","","","","",""
"VRolls","1490 Major MacKenzie Drive West","Maple","Ontario","L6A 4H6","43.8633561","-79.4870667","thai;vietnamese","","","","","","","","","",""
"Opa!","1450 Major MacKenzie Drive West","Maple","Ontario","L6A 4H6","43.8627894","-79.4856141","greek","","","","","","","","","",""
"Ginza","9960 Dufferin Street","Maple","Ontario","L6A 4K5","43.8595607","-79.4888948","sushi","","","","","","","","","",""
"Ristoronte Don Vincenzo","","","","","43.854542","-79.4863246","italian","","","","","","","","","",""
"Halibut House","1840 Major MacKenzie Drive West","Maple","Ontario","L6A 4R9","43.8601303","-79.4998872","fish_and_chips","+19053030988","","","Mo-Su 08:00-21:00","","","","","",""
"Golden Griddle","","","","","43.7677199","-79.473959","","","","","","","","","","",""
"Mr. Greek","","","","","43.7688531","-79.4691016","greek","","","","","","","","","",""
"St. Louis Bar & Grill","","","","","43.7678673","-79.4673671","chicken","","","","","","","","","",""
"Boston Pizza","","","","","43.7578966","-79.4659762","pizza","","","","","","","","","",""
"Cafe Saggio","","","","","43.7584054","-79.4766671","italian","","","","","","","","","",""
"Taj Restaurant","1110 Finch Avenue West","North York","ON","M3J 2T2","43.7688859","-79.4743447","","","","","","","","","","",""
"Sunset Grill","1123 Lodestar Road","North York","ON","M3J 0G9","43.7597587","-79.4653904","american","","","","","","","","","",""
"Don Franchesko","1048 Finch Avenue West","North York","ON","M3J 2P7","43.768359","-79.4719232","pizza","","","","","","","","","",""
"Mandarin","","","","","43.7672425","-79.4696408","chinese","","","","","","","","","",""
"Village House Turkish Restaurant","","","","","43.7675966","-79.4699163","","","","","","","","","","",""
"Joong Wha Ru","","","","","43.767546","-79.4707607","korean","","","","","","","","","",""
"L&P Village Green Jamaican Restaurant","1027 Finch Avenue West","Toronto","ON","","43.7674399","-79.4697966","jamaican","","","","","","","","","",""
"Pita Ikram","1118 Finch Avenue West","Toronto","ON","M3J 3J4","43.7676151","-79.4749535","","","","","","","","","","",""
"Wild Wing","","","","","43.7861394","-79.4735347","chicken","","","","","","","","","",""
"Cora","","","","","43.7866352","-79.4685489","breakfast","","","","","","","","","",""
"Thai Room","","","","","43.7861578","-79.4695064","thai","","","","","","","","","","yes"
"Pho Plus","","","","","43.7863594","-79.4686895","vietnamese","","","","","","","","","","yes"
"Max's of Manila","","","","","43.7883939","-79.4710188","filipino","","","","","","","","","",""
"Freshii","2215 Steeles Avenue West","North York","ON","M3J 3N2","43.7851154","-79.4777815","salad","","","","","","","","","",""
"Raj Mahal","","","","","43.7867225","-79.468576","indian","","","","Mo-Th 11:00-21:30; Fr 11:00-22:00; Sa 12:00-22:00; Su 11:00-21:30","","","","","",""
"Wimpy's Diner","","","","","43.7882923","-79.4714464","diner","","","","","","","","","",""
"168 Sushi Buffet","","","","","43.7874951","-79.4715402","sushi","","","","","","","","","",""
"Pho Mono","","","","","43.7851697","-79.4775545","vietnamese","","","","","","","","","",""
"Moldava Restaurant","","","","","43.7818209","-79.4707407","moldovan","","","","","","","","","",""
"Good Morning Friends","","","","","43.7834613","-79.4709566","breakfast","","","","","","","","","",""
"Elisa Cart Korean Tapas","","","","","43.7752924","-79.4693606","","","","","","","","","","",""
"Dolsoe Korean","","","","","43.7790528","-79.4749313","korean","","","","","","","","","",""
"Pho Metro","","","","","43.7873407","-79.4717735","vietnamese","","","","","","","","","",""
"East Side Mario's","","","","","43.7855404","-79.4759976","italian","","","","","","","","","",""
"Montana's","","","","","43.7866226","-79.4714585","barbecue","","https://www.montanas.ca/","","","","","","Cara","",""
"Han Oak Korean/Japanese Restaurant","","","","","43.7985439","-79.4704438","japanese;korean","","","","","","","","","",""
"Centre Street Deli","","","","","43.8092069","-79.4631271","","+1-905-731-8037","https://www.centrestreetdeli.com/","","","","","","","",""
"Revitasize","","","","","43.8063146","-79.4734504","juice","","","","","","","","","",""
"Curry Curry","","","","","43.8064114","-79.4734749","indian","","","","","","","","","",""
"OM India Food Centre","","","","","43.8065873","-79.4736289","indian","","","","","","","","","",""
"Deja Vu Mediterranean Cuisine","","","","","43.8065984","-79.4737245","middle_eastern","","","","","","","","","",""
"Story Sushi","","","","","43.8090906","-79.4612775","sushi","","","","","","","","","",""
"Ann's Congee","","","","","43.8090549","-79.4616597","chinese","","","","","","","","","",""
"1118 Bistro & Grill","","","","","43.8087808","-79.4621099","","","","","","","","","","",""
"Melody Restaurant","","","","","43.8088571","-79.4621221","","","","","","","","","","",""
"Ani Ristorante","","","","","43.7985116","-79.4705834","italian","","","","","","","","","",""
"Deedar Restaurant","","","","","43.7982801","-79.4697041","","","","","","","","","","",""
"La Briut Cafe","","","","","43.8087858","-79.4620963","","","","","","","","","","",""
"Tea Va See","","","","","43.806678","-79.4714409","","","","","","","","","","",""
"Saigon Grill","1200 Highway 7","Thornhill","Ontario","L4J 0E1","43.8234618","-79.4732329","vietnamese","","","","","","","","","",""
"The Corned Beef House","8707 Dufferin Street","Thornhill","Ontario","L4J 0A2","43.8284351","-79.4780696","sandwich","+1 9055971994","https://www.cornedbeefhouse.com/","","","","","","","",""
"Sofram Mediterrean Cuisine","8707 Dufferin Street","Thornhill","Ontario","L4J 0A2","43.8284234","-79.4781834","middle_eastern","+1 9059079999","http://www.sofram.ca/","","","","","","","",""
"Ichiban Sushi House","8707 Dufferin Street","Thornhill","Ontario","L4J 0A2","43.8283853","-79.4784076","sushi","","https://ichibansushi.com/","","","","","","","",""
"Duff's Famous Wings","9360 Bathurst Street","Maple","Ontario","L6A 4N9","43.8496616","-79.4603203","wings","+1 9058325005","https://www.duffsfamouswings.ca/","","","","","","","",""
"Senbazuru Sushi Bar","1076 Rutherford Road","Maple","","","43.8459487","-79.4699465","sushi","+1-289-304-8338","","","Mo-Th 11:00-21:30, Fr-Sa 11:00-23:00, Su 11:00-22:00","","","","","",""
"Seven Seas Seafood & Grill","","","","","43.8461012","-79.4700269","seafood","","","","","","","","","",""
"Aroowha Sushi","1011 Rutherford Road","Thornhill","Ontario","L4J 0E2","43.8448427","-79.4704778","sushi","+19058860309","http://www.aroowha.com/","","","","","","","",""
"ParsGrill","","","","","43.8642289","-79.46965","","","","","","","","","","",""
"Sorrento Ristorante","","","","","43.8638038","-79.4684572","italian","","","","","","","","","",""
"Grill Gate","832 Sheppard Avenue West","North York","","M3H 2T1","43.7531478","-79.4515814","middle_eastern","","","","","","","","","",""
"Le Montmatre","","","","","43.7512488","-79.4574737","french","","","","","","","","","",""
"Times Square Diner","","","","","43.7510393","-79.4555684","","","","","","","","","","",""
"Alan Restaurant","","","","","43.7527577","-79.4528009","","","","","","","","","","",""
"Crave Restaurant","","","","","43.7531706","-79.4508314","","","","","","","","","","",""
"Suhan Dumplings","","","","","43.755034","-79.4422588","korean","","","","","","","","","",""
"Wakame Sushi","","","","","43.7554986","-79.4408985","sushi","","","","","","","","","",""
"Belle Bar & Restaurant","","","","","43.774366","-79.4424082","","","","","","","","","","",""
"Cynthia's Chinese Restaurant","","","","","43.8092227","-79.4503989","chinese","","","","","","","","","",""
"Me Va Me Restaurant","","","","","43.792909","-79.4464877","","","","","","","","","","",""
"Ba-Li Laffa","","","","","43.7951741","-79.4458116","kebab","","","","","","","","","",""
"Howie T's Burger Bar","","","","","43.7931108","-79.4465062","","","","","","","","","","",""
"Kiva's","1027 Steeles Avenue West","North York","","","43.7912957","-79.4477246","dessert;bagel","+1-416-663-9933","https://www.kivasbagels.ca/","","","","","","","","yes"
"MyeongdongGyoza Kalguksu","","","","","43.7949831","-79.4457978","korean","","","","","","","","","",""
"Shalom India","7700 Bathurst Street","Thornhill","ON","L4J 7Y3","43.8099852","-79.4521523","indian","","","","","","","","","",""
"Ariake Sushi","","","","","43.8099734","-79.4523223","sushi","","","","","","","","","",""
"Randevu","","","","","43.8099132","-79.4504989","russian","","","","","","","","","",""
"Bombay Touch","","","","","43.8096463","-79.4503973","indian","","","","","","","","","",""
"Sushi Wa","","","","","43.7930119","-79.4465032","sushi","","","","","","","","","",""
"Koz Bingol","","","","","43.7922517","-79.4450392","turkish","","","","","","","","","",""
"Pho Viet Express","","","","","43.7939288","-79.4455272","vietnamese","","","","","","","","","",""
"Congee Wong","","","","","43.8082309","-79.4525543","chinese;cantonese","","","","","","","","","",""
"Copper Branch","","","","","43.8103827","-79.4541925","","","","","","","","","","",""
"Mezza Notte Trattoria","","","","","43.8105844","-79.4534697","italian","","","","","","","","","",""
"Meron Restaurant","","","","","43.81061","-79.453596","middle_eastern","","","","","","","","","",""
"Swiss Chalet","","","","","43.8100653","-79.4513661","chicken","","","","","","","","","",""
"What a Bagel","8010 Bathurst Street","Thornhill","Ontario","","43.8167076","-79.452525","breakfast;lunch","+1-905-707-0044","https://www.whatabagel.com/stores/8010-bathurst-st/","","We-Su 08:00-15:00; Mo-Tu off","","","","","",""
"Maple Sushi","30 Disera Drive","Thornhill","","L4J 0A7","43.8118582","-79.4542468","sushi","","","","","","","","","",""
"The Boneyard Grill","","","","","43.8106365","-79.4541822","chicken","","","","","","","","","",""
"Halibut House","","","","","43.810707","-79.4535993","fish_and_chips","","","","","","","","","",""
"Miyako Sushi","","","","","43.848627","-79.4577827","sushi","","","","","","","","","",""
"Bathurst Street Deli","","","","","43.8489117","-79.4583017","","","","","","","","","","",""
"Me-Va-Me Restaurant","9302 Bathurst Street","Maple","Ontario","","43.8477891","-79.4598283","","","","","Mo-Su 11:30-23:00","","","","","",""
"AiTalker","9200 Bathurst Street","Thornhill","Ontario","L4J 8W1","43.8470743","-79.4597434","taiwanese;fried_chicken","+19055975883","https://www.aitaikercanada.com/","","","","","","","",""
"Stonefire Bar & Grill","8700 Bathurst Street","Thornhill","Ontario","L4J 9J8","43.8345407","-79.4560681","","","http://www.stonefirebarandgrill.com/","","","","","","","",""
"Freshii","9360 Bathurst Street","Maple","Ontario","L6A 4N9","43.8496784","-79.4597002","salad","","","","","","","","","",""
"Viva Pizza + Pasta","","","","","43.8483619","-79.4576923","pizza","","","","","","","","","",""
"Al's Pizzeria and Grill","","","","","43.8660652","-79.4584915","pizza","","","","","","","","","",""
"Pizza Hut","10 Headdon Gate","Richmond Hill","Ontario","L4C 8A2","43.8672443","-79.4586068","pizza","","","","","","","","","",""
"Stragonoff","10 Headdon Gate","Richmond Hill","Ontario","L4C 8A2","43.867057","-79.4588958","","","https://strogano.com/","","","","","","","",""
"Dynasty","10 Headdon Gate","Richmond Hill","Ontario","L4C 8A2","43.8672506","-79.4585377","chinese","","","","","","","","","",""
"China Court","","","","","43.7559029","-79.4374394","chinese","","","","Tu,Su 03:00-22:00; Mo,We-Sa 03:00-23:00","","","","","",""
"Summer House","","","","","43.7558035","-79.4379085","filipino","","","","","","","","","",""
"Ginza Sushi","","","","","43.806209","-79.423618","sushi","","","","","","","","","",""
"Cho Sun Ok","","","","","43.806778","-79.421747","","","","","","","","","","",""
"Jiwon Green Korean Restaurant","","","","","43.807251","-79.422968","korean","","","","","","","","","",""
"Legend Chinese Restaurant","","","","","43.804785","-79.420483","chinese","","","","","","","","","",""
"Paramount Fine Foods","","","","","43.805766","-79.42105","","","","","","","","","","",""
"Lobster Royale","","","","","43.805853","-79.421082","","","","","","","","","","",""
"Indian Kitchen","","","","","43.806384","-79.4231182","indian","","","","","","","","","",""
"Sunny Dragon","","","","","43.7951738","-79.434676","korean","","","","","","","","","",""
"Momo Yama","","","","","43.797403","-79.4253579","","","","","","","","","","",""
"Congee Queen","6464 Yonge Street","North York","","","43.7956958","-79.4216988","chinese","+1-416-733-8388","https://www.congeequeen.com/","","","","","","","",""
"The Indian Kitchen","","","","","43.8062135","-79.4212096","indian","","","","","","","","","",""
"Pickle Barrel","6464 Yonge Street","","","","43.7960227","-79.4212621","","","","","","","","","","",""
"Chicken Mymy","","","","","43.8069664","-79.4218235","","","","","","","","","","",""
"Xe Lau","180 Steeles Avenue West","Vaughan","Ontario","L4J 2L1","43.7980056","-79.4263537","vietnamese","","","","","","","","","",""
"General Tso's Kitchen","","","","","43.7993357","-79.4201157","chinese","","","","","","","","","",""
"Sinjeon Foodsys","","","","","43.7994891","-79.4201606","","","","","","","","","","",""
"Xin Chao Vietnamese Cuisine","","","","","43.7995987","-79.4201928","vietnamese","","","","","","","","","",""
"Jung Soo Ne Bonga","","","","","43.7960292","-79.4340921","korean","","","","","","","","","",""
"Tao’s Chinese Kitchen","","","","","43.7957968","-79.4339316","chinese","","","","","","","","","",""
"The Indian Cuisine","","","","","43.7952947","-79.4347263","indian","","","","","","","","","",""
"Sababa Restaurant","","","","","43.7958917","-79.4339703","","","","","","","","","","",""
"Seoul House","180 Steeles Avenue West","Thornhill","Ontario","L4J 2L1","43.7974102","-79.4263082","korean","","","","","","","","","",""
"Red Lobster","7291 Yonge Street","Markham","","","43.8052725","-79.4212215","seafood","","","","","","","","","",""
"TERRA Restaurant & Catering","","","","","43.8279252","-79.4266125","","","","","","","","","","",""
"Symposium Cafe Restaurant Thornhill","8187 Yonge Street","Thornhill","","L3T 2C6","43.8272249","-79.4263398","burger;regional;coffee_shop;sandwich;chicken;seafood;international;american;ice_cream;fish_and_chips;fish;dessert;salad;pasta;cake","+1 905-881-2233","https://symposiumcafe.com/locations/thornhill-restaurants","symposium.thornhill@symposiumcafe.com","Mo-Su 08:00-24:00","yes","no","yes","","yes","yes"
"Philoxenia","8199 Yonge Street","","","","43.8277798","-79.4266248","greek","","","","","","","","","",""
"Steve's Restaurant","","","","","43.8245657","-79.4269391","","","","","","","","","","",""
"Panto's Italian Cuisine","","","","","43.823588","-79.424792","italian","+1-905-731-0352","","","","","","","","",""
"Royal Orchard Thai Cuisine","","","","","43.82355","-79.42499","thai","","","","","","","","","",""
"Eggsmart","","","","","43.823796","-79.425763","breakfast","","","","","","","","","",""
"Chinese Gourmet","","","","","43.825486","-79.425368","","","","","","","","","","",""
"Akbar Joojeh","","","","","43.825504","-79.425296","","","","","","","","","","",""
"Yorokobi Japanese Restaurant","601 Clark Avenue West","","","L4J 4E5","43.816809","-79.424253","japanese","","","","","","","","","",""
"Kish Restaurant","","","","","43.8262207","-79.4272779","","","","","","","","","","",""
"Minoo","","","","","43.8237088","-79.4257595","","","","","","","","","","",""
"The Octagon Steakhouse","","","","","43.8111775","-79.4224925","steak","","","","","","","","","",""
"Il Fornello","","","","","43.8433521","-79.4301634","","","","","","","","","","",""
"Abruzzo Pizza","9010 Yonge Street","","","","43.8471409","-79.4320697","pizza","+1-905-881-8222","","","","","","","","",""
"Woody Wood Burger","8950 Yonge Street","","","","43.8460553","-79.4318416","","+1 9052241432","","","","","","","","",""
"Pizza Hut","","","","","43.8484551","-79.4322801","pizza","+1 9052379878","","","","","","","","",""
"Roses Kebab Land","","","","","43.8494019","-79.4324543","","+1 9055973990","","","","","","","","",""
"Aashland Persian Cuisine","","","","","43.8496348","-79.4325712","","+1 4378798700","","","08:00-22:00","","","","","",""
"Milestones","","","","","43.8419867","-79.4283073","bar_and_grill","","","","","","","","","",""
"Montana's","8735 Yonge Street","Richmond Hill","ON","","43.8408233","-79.4282445","barbecue","","","","","","","","","",""
"Kelsey's","8715 Yonge Street","","","","43.8402601","-79.4292644","american","","","","Mo 10:00-22:00, Tu-Th,Su 10:00-23:00, Fr,Sa 10:00-24:00","yes","","","","",""
"Mr. Congee","","","","","43.8642224","-79.4363624","chinese","","","","","","","","","",""
"Hong Dae Korean Restaurant","9184 Yonge Street","","","","43.8509763","-79.433119","korean","","","","","","","","","",""
"Kim Po Vietnamese Cuisine","","","","","43.861446","-79.432796","","","","","","","","","","",""
"Kazan Table BBQ","","","","","43.860764","-79.434118","","","","","","","","","","",""
"Nando's","","","","","43.8612409","-79.4343627","chicken;portuguese","","","","","","","","","",""
"Shishli Grill & Restaurant","9555 Yonge Street","Richmond Hill","Ontario","","43.8599646","-79.4338329","","","","","","","","","","",""
"Persia Restaurant","","","","","43.8558329","-79.4306718","persian","","","","","","","","","",""
"Choice of the Orient Chinese Restaurant 潮茶檔","9555 Yonge Street","Richmond Hill","Ontario","","43.8589788","-79.4337668","chinese","","","","","","","","","",""
"Sansotei Ramen","9555 Yonge Street","Richmond Hill","Ontario","","43.8595727","-79.4333044","ramen","","","","","","","","","",""
"Pho Tai Bac","9555 Yonge Street","Richmond Hill","Ontario","","43.8594414","-79.4333184","vietnamese","","","","","","","","","",""
"Chillax & Co. Bistro + Brunch","","","","","43.8611856","-79.4355719","","","","","","","","","","",""
"Tomo Sushi","","","","","43.8608169","-79.4342515","sushi","","","","","","","","","",""
"Super Arzon","","","","","43.8644805","-79.4350569","","","","","","","","","","",""
"Roses Senso Café & Bites","9218 Yonge Street","","","","43.852572","-79.4335087","","","","","","","","","","",""
"Ramona’s Kitchen","","","","","43.8532141","-79.4361278","","","","","","","","","","",""
"Kaiyo Sushi","","","","","43.8556496","-79.4303118","sushi","905-737-7888","","","","","","","","",""
"Dorchin Kebab","","","","","43.8742684","-79.437663","","","","","","","","","","",""
"Angry Wings","","","","","43.874412","-79.4243528","chicken;burger","","","","","","","","","",""
"Michi Sushi","","","","","43.7650997","-79.4003626","sushi","","","","","","","","","",""
"Paisano's","","","","","43.7646159","-79.4001598","","","","","","","","","","",""
"Trio 3","","","","","43.7688128","-79.414216","","","","","","yes","","","Novotel","",""
"Shoeless Joe's","","","","","43.7616449","-79.4092178","grill","","","","","","","","","",""
"Armando's Authentic Italian Cuisine","","","","","43.7628999","-79.4116255","italian","","","","","","","","","",""
"Moxie's","","","","","43.764853","-79.412275","bar_and_grill","","","","","","","","","",""
"Cafe Palma","","","","","43.7685382","-79.4136639","","","","","","","","","","",""
"Sushi One","","","","","43.7644121","-79.4120288","sushi","","","","","","","","","",""
"Tandoori House Indian Cuisine","","","","","43.7628093","-79.4115923","indian","","","","","","","","","",""
"Lee Namjang Korean Restaurant","4846","","","","43.7625054","-79.4114628","korean","(416) 418-6806","https://www.daldongnaebbq.com/","","Mo-Su 12:00-02:00","","","","","",""
"Kenzo","","","","","43.7627418","-79.4115339","japanese","+1-647-345-1871","http://www.kenzoramen.ca/","","Mo-Su 11:00-22:00","","","","","",""
"EAT BKK Thai Kitchen","4704 Yonge Street","Toronto","","M2N 5M4","43.7592544","-79.4107241","thai","","","","","","","","","no","yes"
"Kinka Izakaya","4775 Yonge Street","North York","","M2N 5M5","43.760435","-79.4097497","japanese","","","","","","","","","","yes"
"Spicy & Delicious","4664 Yonge Street","North York","","M2N 5M1","43.7579221","-79.4103887","chinese","+1-416-590-1315","https://shuxiang4664yonge.com","","Mo-Su 12:00-22:00","","","","","yes","yes"
"Pho OK","4664 Yonge Street","North York","Ontario","M2N 5M1","43.7580043","-79.4104436","vietnamese","+1 416 222 2668","https://phook.ca/","Pho.ok.yonge@gmail.com","Mo-Sa 11:00-22:00","","outside","","","yes","yes"
"4AM Bar & Lounge","4664 Yonge Street","North York","","M2N 5M1","43.7578824","-79.4104355","lounge;korean;bar","+1-416-901-4084","","","","","outside","","","",""
"Morals Village","5095 Yonge Street","Toronto","","M2N 6Z4","43.7691164","-79.4125078","hotpot;szechuan","","","","","","","","","",""
"Golden Rice Noodle","4750 Yonge Street","Toronto","","","43.7601989","-79.4109406","noodle;chinese","","","","","","","","","",""
"Blaze Pizza","","","","","43.7623328","-79.4107904","pizza","","","","Su-Th 11:00-22:00; Fr,Sa 11:00-23:00","","no","","","",""
"Flock Rotisserie + Greens","","","","","43.7628646","-79.4108453","chicken","","","","","","","","","",""
"Petit Potato","","","","","43.7682517","-79.4123312","japanese","","","","","","","","","",""
"Freshii","","","","","43.7630754","-79.4104625","salad","","","","","","","","","",""
"Cafe Landwer","5000 Yonge Street","North York","ON","M2N 7E9","43.7662778","-79.4124604","","+1 4162265005","https://www.landwer.ca/","info@landweryonge.ca","Mo-Th,Su 08:00-22:00; Fr-Sa 08:00-23:00","","","wlan","","",""
"The Fry - Sheppard","4864 Yonge Street","Toronto","Ontario","M2N 5N2","43.7629563","-79.4115452","korean;fried_chicken","+1 416-546-6159","https://thefry.ca/","Lee@thefry.ca","Su-Th 15:00-02:00; Fr-Sa 15:00-01:30","","","","","",""
"Mapo Gamjatang","4916 Yonge Street","North York","ON","","43.7641928","-79.4119896","","","","","","","","","","",""
"","","","","","43.7641393","-79.4002569","chinese","","","","","","","","","",""
"Konjiki Ramen","","","","","43.7669663","-79.4120212","japanese","","","","","","","","","",""
"Pizzamaru","4850 Yonge Street","North York","Ontario","M2M 3W5","43.7625798","-79.4114883","pizza","+1 (416) 222-3337","https://www.pizzamaru.ca/","","","","","","","",""
"Kinton Ramen","5165 Yonge Street","Toronto","","M2N 5P5","43.769798","-79.4127347","japanese;ramen","+1-647-350-7887","https://www.kintonramen.com/canada/","","","","","","","",""
"Shawarma Max","5171 Yonge Street","Toronto","","M2N 5P5","43.7699157","-79.4127542","shawarma","+1-647-351-7629","","","","","","","","",""
"Izakaya Tokyo Grill","5175 Yonge Street","Toronto","","M2N 5P5","43.7700009","-79.412753","japanese","","","","","","","","","",""
"The Keg","","","","","43.766424","-79.4117074","steak_house","","https://thekeg.com/en/locations/north-york","","","","","","","",""
"Union Social Eatery","4899 Yonge Street","","","M2N 5N4","43.7638886","-79.4111793","","+1-416-221-6789","https://www.unionsocial.ca/","usesheppard@unionsocial.ca","Mo-We,Su 11:30-23:00; Th-Sa 11:30-24:00","","no","wlan","","",""
"Evivva Restaurant Breakfast & Lunch","5221 Yonge Street","Toronto","","M2N 5P8","43.7711954","-79.4130989","","","","","","yes","","","","",""
"Oh Geul Boh Geul Korean Restaurant","","","","","43.7731802","-79.4141115","korean","","","","","","","","","",""
"Select Sandwich","","","","","43.7831536","-79.4159913","","","","","","","","","","",""
"Friendly House 24 hr","","","","","43.7868009","-79.4177036","","","","","24/7","","","","","",""
"Alborz Restaurant","","","","","43.7867099","-79.417666","persian","","","","","","","","","",""
"Ajuker Fried Chicken","","","","","43.788985","-79.418299","chicken","","","","","","","","","",""
"Ave Seoul Restaurant","","","","","43.7874678","-79.4171585","korean","","","","","","","","","",""
"Kayagum","5460 Yonge Street","North York","","M2N 6K7","43.7774096","-79.4152","japanese;korean","","","","24/7","","","","","","yes"
"Piazza Manna","","","","","43.7804338","-79.4165291","","","","","","","","","","",""
"JungSooNae","","","","","43.7833436","-79.4168165","","","","","","","","","","",""
"Pho Vietnamese Delight","5533 Yonge Street","North York","","M2N 5S2","43.7785661","-79.4149416","rice_noodle","","","","","","","","","",""
"Oh! Bar","5467 Yonge Street","North York","","M2N 5S1","43.7777722","-79.4147523","barbecue","","","","","","","","","",""
"Sansotei Ramen","13 Byng Avenue","Toronto","","M2N 5R7","43.7766188","-79.414018","japanese;ramen","+1-416-901-1160","https://www.sansotei.com/","","Mo-Th 11:30-22:30; Fr,Sa 11:30-24:00; Su 11:30-22:30","","no","","","",""
"VIPS Sushi","9 Byng Avenue","Toronto","","M2N 0E6","43.7765971","-79.4141366","japanese;sushi","+1-647-637-0821","","","Mo-Sa 11:00-23:00; Su 15:00-22:00","","","","","",""
"Authentic Japanese Food","5 Byng Avenue","Toronto","","","43.776587","-79.4141844","japanese","","","","We-Mo 12:00-23:00","","no","","","",""
"Pizza Shab","3 Byng Avenue","Toronto","","","43.7765685","-79.4142685","pizza;persian","+1-647-477-7288","https://pizzashab.ca/","","","","","","","",""
"Sang-Ji Fried Bao","1 Byng Avenue","Toronto","","M2N 5R6","43.7765583","-79.4143129","chinese;shanghai","","","","","","","","","",""
"North Stars Bar and Grill","5433 Yonge Street","Toronto","","M2N 5R6","43.7765322","-79.4143899","american","+1-416-596-5595","https://www.northstarsbar.com/","","","","no","","","",""
"Ajisen Ramen","5229 Yonge Street","Toronto","","M2N 5P8","43.7714378","-79.4131813","japanese;ramen","+1-416-223-0618","http://www.ajisen.ca/","","","","","","","",""
"Pastel Creperie","","","","","43.7762778","-79.4143751","dessert;coffee_shop","","","","Su-Th 12:00-23:00; Fr,Sa 12:00-24:00","","","","","",""
"Cheng Du Taste","5371 Yonge Street","Toronto","","M2N 5R6","43.7758619","-79.4142655","chinese","","","","","","","","","",""
"Beijing Restaurant","","","","","43.7758202","-79.4142505","chinese","","","","","","","","","",""
"Miss Durian","","","","","43.7749256","-79.414054","dessert;chinese","","","","","","","","","",""
"Go Topoki","","","","","43.7749685","-79.4140639","korean","","","","","","","","","",""
"Roll.com","","","","","43.7751322","-79.4140859","korean","","","","","","","","","",""
"SSAM Toronto Korean BBQ & Grill","","","","","43.7795213","-79.4158258","korean;barbecue","","","","","","","","","",""
"Nak Won Korean Restaurant","","","","","43.7794232","-79.4157746","korean","","","","","","","","","",""
"Pyong Won House","","","","","43.7793614","-79.4157605","korean","","","","","","","","","",""
"Cafe Princess","","","","","43.7793353","-79.4158995","bubble_tea;dessert","","","","","","","","","",""
"Simple Way","","","","","43.778296","-79.4154753","chinese","","","","","","","","","",""
"Vietnamese Delight","","","","","43.77855","-79.4149529","vietnamese","","","","","","","","","",""
"Lim Ga Ne Korean Restaurant","","","","","43.7784701","-79.4149588","korean","","","","","","","","","",""
"Hot-Star Fried Chicken","","","","","43.7784401","-79.4149469","chicken;fried_chicken;taiwanese","","","","","","","","","",""
"Ling BBQ","","","","","43.7784087","-79.4149351","barbecue;korean","","","","","","","","","",""
"MeNami","","","","","43.7778408","-79.4147941","japanese;noodle","","","","","","","","","",""
"Tasty Hut","5364 Yonge Street","Toronto","","","43.777676","-79.4147615","chinese;hunan","","","","","","","","","",""
"Yu Szechuan Cuisine","5461 Yonge Street","Toronto","","","43.7776228","-79.4147474","szechuan;chinese","","","","","","","","","",""
"Mabu Station","5455 Yonge Street","Toronto","","","43.7774738","-79.4146962","taiwanese;bubble_tea","","","","","","","","","",""
"Magic Noodle","","","","","43.7773861","-79.4146827","chinese;noodle","","","","","","","","","",""
"Korean Chinese Restaurant","","","","","43.7773318","-79.4146686","korean;chinese","","","","","","","","","",""
"Buk Chang Dong Soon Tofu Korean Restaurant","5445 Yonge Street","Toronto","","","43.777125","-79.4146237","korean","","","","","","","","","",""
"Angus Pho House","5443 Yonge Street","Toronto","","M2N 5S1","43.7770598","-79.4146163","vietnamese;noodle","","","","","","","","","",""
"Miss Fu In ChengDu","","","","","43.7770077","-79.4145876","chinese","","","","","","","","","",""
"Wing Machine","","","","","43.7769477","-79.4145709","wings;regional;pizza","","","","","","","","","",""
"Jin's Mi-Fen","5515 Yonge Street","Toronto","","","43.7783054","-79.414912","chinese;rice_noodle","","","","","","","","","",""
"Cheers Chicken & Beers","19 Finch Avenue West","North York","","M2N 7K4","43.7791284","-79.4174109","chicken;fried_chicken;fries","","","","Mo-Su 16:00-00:30","","","","","",""
"Huh Ga Ne","19 Finch Avenue West","North York","","M2N 7K4","43.779179","-79.4172641","korean","","","","24/7","","","","","yes",""
"XiangLongZhuaZhua","15 Northtown Way","Toronto","","","43.7752653","-79.4133731","chinese;chicken","","","","","","","","","",""
"Lucky Tea","15 Northtown Way","Toronto","","","43.7751539","-79.4139841","bubble_tea","","","","","","","","","",""
"Hot Impression","","","","","43.7733739","-79.4142502","chinese","","","","","","","","","",""
"DakGoGi","","","","","43.7729666","-79.4140716","korean","","","","","","","","","",""
"San Tong","","","","","43.772902","-79.4140504","chinese;shandong","","","","","","","","","",""
"i-migo","","","","","43.7753884","-79.4146915","japanese","","","","","","","","","",""
"Zhang's Kitchen 张小厨","","","","","43.7754924","-79.4147137","chinese","","","","","","","","","",""
"Crystal Palace","5418 Yonge Street","Toronto","","","43.7756962","-79.4147639","chinese","","","","","","","","","",""
"Palgong Tea","","","","","43.7757422","-79.4147734","bubble_tea;korean","","","","","","","","","",""
"Hey Sugar | 嘿糖","5379 Yonge Street","Toronto","","","43.7759884","-79.4143156","bubble_tea","","","","","","","","","",""
"春 Chun Yang Taiwan Black Tea","5377 Yonge Street","Toronto","","","43.775949","-79.4143057","tea","","","","","","","","","",""
"Chinese Burger 肉来谟","","","","","43.7753348","-79.4131828","chinese","","","","","","","","","",""
"ZenQ","","","","","43.7768257","-79.4144275","taiwanese;bubble_tea","","","","","","","","","",""
"Meet You","","","","","43.7769034","-79.4144472","hong_kong","","","","","","","","","",""
"Superhot","","","","","43.7735866","-79.4142719","hotpot","","","","","","","","","",""
"43° N BBQ Bar","5287 Yonge Street","","","","43.7726458","-79.4134541","chinese;barbecue","","","","","","","","","",""
"Yang's Braised Chicken Rice","","","","","43.7725985","-79.4133847","chinese","","","","","","","","","",""
"Yunshang Rice Noodle","5285 Yonge Street","Toronto","ON","M2N 5R3","43.7724975","-79.413338","noodle","","","","","","","","","",""
"Yupdduk Finch","116 Finch Avenue West","","","","43.7794067","-79.418285","korean","+1-416-225-5353","https://yupdduk.ca/","","","yes","","","","",""
"The Fry","","","","","43.788957","-79.4182864","chinese","","","","","","","","","",""
"Torch Sushi","","","","","43.7894934","-79.4182006","japanese","","","","","","","","","",""
"Daldongnae","","","","","43.7896889","-79.4183213","","","","","","","","","","",""
"Katsuya","","","","","43.7899839","-79.4185259","japanese;korean","","","","","","","","","",""
"Gol’s Lanzhou Noodle","","","","","43.7780982","-79.4148514","chinese","","","","","","","","","",""
"Supertech","","","","","43.7812796","-79.4156391","","","","","","","","","","",""
"Gui Gui","5935 Yonge Street","","","","43.7874099","-79.417156","korean","","","","","","","","","",""
"Good Taste Casserole Rice","5205 Yonge Street","North York","Ontario","M2N 5P7","43.7707061","-79.4130464","chinese","","https://goodtastecasserolerice.com/index-en.html","","","","","","","",""
"Daldongnae Korean BBQ","5211 Yonge Street","North York","Ontario","","43.7707563","-79.4130574","korean","","https://www.daldongnaebbq.com","","","","","","","",""
"Pizzamaru","6050 Yonge Street","North York","ON","M2M 3W5","43.7899166","-79.4184724","pizza","","https://www.pizzamaru.ca","","","","","","","",""
"The OWL of Minerva","5324 Yonge Street","Toronto","Ontario","M2N 5P9","43.7732893","-79.4142004","korean","+1-416-221-7275","","","24/7","","","","","",""
"HeyNoodles","5306 Yonge Street","Toronto","","M2N 5P9","43.7728334","-79.41409","chinese;noodle","","","","","","","","","",""
"Sugar Marmalade","","","","","43.7732266","-79.4142102","dessert","","","","","","","","","",""
"Mr Fish","5321 Yonge Street","Toronto","","M2N 5R4","43.7735444","-79.4136429","seafood;chinese","","","","","","","","","",""
"Upper East Food Club","5317 Yonge Street","Toronto","","M2N 5R4","43.7734604","-79.4136102","","","https://uppereastfood.club","","","","","","","",""
"Meet Fresh","5315 Yonge Street","Toronto","","M2N 5R4","43.7733809","-79.4135886","taiwanese","+1-416-546-5139","http://www.meetfreshcanada.com/east/","","","","","","","",""
"The Captain's Boil","5313 Yonge Street","Toronto","","M2N 5R4","43.7733309","-79.4135758","seafood","+1-647-348-7808","https://www.thecaptainsboil.com/","","","","","","","",""
"St. Louis Bar & Grill","5307 Yonge Street","Toronto","","M2N 5R4","43.7732021","-79.4135493","chicken","+1-416-226-5988","https://stlouiswings.com/","","","","","","","",""
"Cheese Garden","5291 Yonge Street","Toronto","","M2N 5R3","43.7728154","-79.4134444","dessert;japanese","+1-416-792-5888","https://www.cheesegarden.ca/","","","","","","","",""
"Wako Sushi","5213 Yonge Street","Toronto","","M2N 5P8","43.7708252","-79.4129719","japanese;sushi","+1-416-551-4476","https://www.wakosushi.ca/","","","","","","","",""
"Pho 88","5197 Yonge Street","Toronto","","M2N 5P7","43.7705299","-79.4128401","vietnamese","+1-416-225-8899","http://www.pho88yonge.ca/","","","","","","","",""
"Qing Shu Spicy Hot Pot","5195 Yonge Street","Toronto","","M2N 5P7","43.7704435","-79.4129068","chinese","","","","","","","","","",""
"","5505 Yonge Street","Toronto","","M2N 5S3","43.7780924","-79.4148101","","","","","","","","","","",""
"Ichiban Sushi","","","","","43.7943176","-79.4199192","sushi","","","","","","","","","",""
"Yummi's","","","","","43.7915699","-79.4179779","chinese","","","","","","","","","",""
"Laterna Family Restaurant","6301 Yonge Street","","","","43.7956986","-79.4191534","greek","","http://www.laterna.ca/","","Mo-Th 12:00-21:00; Fr 12:00-22:00; Sa 15:00-22:00","","","","","",""
"Famous Laffa","","","","","43.7952403","-79.4189669","","","","","","","","","","",""
"Zaffan","6200 Yonge Street","","","","43.7936567","-79.41936","","","","","","","","","","",""
"Bellafornia","","","","","43.8028931","-79.4196574","","","","","","","","","","",""
"Sushi Bong","","","","","43.8037332","-79.4199256","sushi","","","","","","","","","",""
"Eat BKK","","","","","43.7957152","-79.4192356","thai","","https://eatbkk.ca/","","","","","","","",""
"Daldongnae Korean BBQ","6347 Yonge Street","","","","43.7961134","-79.4191832","korean","","","","","","","","","",""
"Apkujung","","","","","43.7957638","-79.4192291","korean","+14162296248","","","","","","","","",""
"Roses New York","6313 Yonge Street","North York","ON","M2M 3X7","43.7958042","-79.419245","persian;american","+14167333636","http://www.rosesnewyork.com/","","","","","","","",""
"Yu Garden","","","","","43.8432044","-79.408111","chinese","","","","","","","","","",""
"糊涂楼 Hot Taste Restaurant","324 Highway 7","Richmond Hill","Ontario","","43.8407192","-79.4005187","chinese","+1 9058869989","","","Mo-Su 16:00-5:00","","","","","",""
"The Flying Fish","324 Highway 7","Richmond Hill","Ontario","","43.8407535","-79.4003607","japanese","+1 9058829959","https://www.theflyingfish-ca.com/","","","","","","","",""
"荔銀腸粉店 Li Yin Chang Fen Roll","324 Highway 7","Richmond Hill","Ontario","","43.8408206","-79.4000903","chinese","+1 9057076266","","","Mo-Su 8:30-21:00","","","","","",""
"The One Fusion Cuisine","","","","","43.8513637","-79.4081676","chinese","","","","","","","","","",""
"Silver Bay Cafe","","","","","43.867851","-79.4121499","chinese","","","","","","","","","",""
"Senbazuru Sushi Bar","","","","","43.8680092","-79.4121963","sushi","","","","","","","","","",""
"Maxim Restaurant","","","","","43.8685554","-79.4123406","chinese","","","","","","","","","",""
"Yang's Fine Chinese Cuisine","","","","","43.868486","-79.4130067","chinese","","","","","","","","","",""
"Bombay's Chutney","1070 Major Mackenzie Drive East","Richmond Hill","","L4S 1P3","43.8768517","-79.4149933","","+1-905-883-4400","","","","","","","","",""
"Restoran Malaysia","815 Major Mackenzie Drive East","Richmond Hill","","L4C 9X2","43.8757716","-79.4135361","malaysian","+1-905-508-1432","https://www.restoranmalaysia.com/","","","","","","","",""
"Thai Basil","1070 Major Mackenzie Drive East","Richmond Hill","","L4S 1P3","43.8770432","-79.4141175","thai","","","","Mo-Th,Su 11:30-22:00; Fr-Sa 11:30-22:30","","outside","","","","yes"
"Cafe KenKaKu","1070 Major Mackenzie Drive East","Richmond Hill","","L4S 1P3","43.8771157","-79.4137195","japanese","","","","","","","","","",""
"Allencourt Restaurant","","","","","43.8763949","-79.4177097","fish_and_chips","","","","","","","","","",""
"Thw Owl of Minerva","","","","","43.8758715","-79.4132616","korean","","","","","","","","","",""
"Bayview Kitchen","","","","","43.8756506","-79.4139071","chinese","","","","","","","","","",""
"Beijing Tong Ren Tang","","","","","43.8765376","-79.4106981","chinese","","","","","","","","","",""
"Bayview Court Chinese Restaurant","1070 Major Mackenzie Drive East","","","","43.877089","-79.4137849","chinese","","","","","","","","","",""
"Fusion Viet Food","1070 Major Mackenzie Drive East","","","","43.8768979","-79.4147","vietnamese","","","","","","","","","",""
"Wimpy's","","","","","43.7639544","-79.3988515","diner","","","","","","","","","",""
"Goa Kitchen","","","","","43.7683578","-79.3863323","indian","","","","","","","","","",""
"Pearl Bayview","","","","","43.7684461","-79.3862454","chinese","","","","","","","","","",""
"Gangnam Sushi","","","","","43.7638885","-79.3991578","japanese","","","","","","","","","",""
"Spring Chicken House","","","","","43.7638752","-79.3992211","chinese","","","","","","","","","",""
"Vietnoms","","","","","43.7644858","-79.3961714","","","","","","","","","","",""
"Shamshiri Restaurant","","","","","43.7644707","-79.3984131","","","","","","","","","","",""
"So Hungry","","","","","43.7645414","-79.3959498","","","","","","","","","","",""
"Sun Star Chinese","","","","","43.7879823","-79.3811425","chinese","","","","","","","","","",""
"Paik's Noodle","1549 Steeles Avenue East","North York","ON","M2M 3Y7","43.805213","-79.3841029","korean","+1-416-218-8999","https://paiksnoodle.com/","","Mo-Su 11:30-22:00","no","no","","","","yes"
"Pizza Hut","392 John Street","Markham","Ontario","L3T 5W6","43.8206476","-79.3882029","pizza","+1-905-886-4444","https://www.pizzahut.ca/huts/ca-1/R31403/","","Mo-Th 11:00-23:00; Fr-Sa 11:00-24:00; Su 12:00-23:00","","","","","","yes"
"Ferovia Ristorante","","","","","43.8131911","-79.3985682","italian","","","","","","","","","",""
"SHoomSHoom","","","","","43.8134496","-79.3988087","","","","","","","","","","",""
"Hunan Restaurant","","","","","43.82047","-79.3983027","chinese","","","","","","","","","",""
"Bento sushi","","","","","43.8135155","-79.3984629","sushi","","","","","","","","","",""
"Santorini","","","","","43.8200191","-79.3989811","greek","","","","","","","","","",""
"Ambassador Chinese Cuisine","","","","","43.8438595","-79.3871479","chinese","","","","","","","","","",""
"Tastee","9021 Leslie Street","","","","43.847558","-79.382507","","","","","","","","","","",""
"Nogi Sushi","115 Times Avenue","Markham","Ontario","","43.8421997","-79.3903523","sushi","","","","We-Mo,PH 11:30-21:30","yes","","","","",""
"Golden Court Restaurant","","","","","43.8442699","-79.3882315","","","","","","","","","","",""
"漁米軒 Yumi Legend","328 Highway 7","Richmond Hill","Ontario","","43.8408706","-79.3997092","chinese","+1 9055976667","","","Mo-Su 11:00-23:00","no","","","","",""
"Kinton Ramen","505 Highway 7","Richmond Hill","","L3T 7T1","43.8425862","-79.388034","japanese","+1-905-597-8775","https://www.kintonramen.com/canada/locations/","","Mo-Su 11:30-22:30","","no","","","yes",""
"Saigon Star","","","","","43.8410784","-79.3990395","vietnamese","","","","","","","","","",""
"O Mei Fine Chinese Cuisine","420 Highway 7","Richmond Hill","Ontario","","43.8429987","-79.3904944","chinese","","","","","","","","","",""
"My Wonderful Kitchen","350 Highway 7","","","","43.8415277","-79.3974574","","","","","","","","","","",""
"bb.q Chicken","420 Highway 7","Richmond Hill","Ontario","L4B 3K2","43.8434932","-79.3908352","korean;chicken","","http://www.88porkbonesoup.ca/","","","","","","","",""
"人人菜館 New Choice Restaurant","324 Highway 7","Richmond Hill","Ontario","","43.8408357","-79.3999967","chinese","+1 9058862313","","","Mo-Su 11:00-23:00","","","","","",""
"小龙坎老火锅 XiaoLongKan Chinese Fondue","328 Highway 7","Richmond Hill","Ontario","","43.8409601","-79.3996419","chinese;hot_pot","+1 9055971885","https://www.xiaolongkan.ca/?lang=en","","Fr-Tu 12:00-02:00, We,Th 12:00-23:30","yes","","","","",""
"湘椒老茶館 Hunan Tearoom","328 Highway 7","Richmond Hill","Ontario","","43.8413393","-79.3997844","chinese;sichuanese","","http://hotopiacanada.com/richmond-hill/","","Mo-Su 12:00-21:30","yes","","","","",""
"The Big Brother","328 Highway 7","Richmond Hill","Ontario","","43.8415825","-79.3996279","chinese","","","","","","","","","",""
"Shanghai Dimsum","","","","","43.8414536","-79.3989032","chinese","","","","","","","","","",""
"Sanxi Noodle","328 Highway 7","Richmond Hill","Ontario","","43.8416406","-79.3993563","noodle","","https://www.shinghingfood.com/","","","","","","","",""
"Sapporo Sushi","","","","","43.8413327","-79.3988231","sushi","","","","","","","","","",""
"Da Long Yi Hotpot","360 Highway 7","","","","43.8412684","-79.3980272","chinese","","","","","","","","","",""
"Hikari Sushi House","","","","","43.8416209","-79.3956931","sushi","","","","","","","","","",""
"Kum Hong BBQ Restaurant","420 Highway 7","Richmond Hill","Ontario","","43.8436234","-79.3912145","chinese","","","","Mo-Sa 11:00-20:30","yes","","","","",""
"The Point Eatery","420 Highway 7","Richmond Hill","Ontario","","43.8433875","-79.3907774","chinese","","","","","","","","","",""
"Pho Anh Vu","420 Highway 7","Richmond Hill","Ontario","","43.8432804","-79.3907258","vietnamese","","","","","","","","","",""
"老街肠粉 Millstone Rice Rolls","328 Highway 7","Richmond Hill","Ontario","","43.841624","-79.3994416","chinese","+1 2895976788","","","Mo-Su 08:00-01:00","","","","","",""
"Inaroy","328 Highway 7","Richmond Hill","Ontario","","43.8417448","-79.3990319","thai","+1 9055971766","","","Mo-Su 11:30-22:00","","","","","",""
"Donburi ドンプリ","505 Highway 7","Markham","Ontario","","43.8420126","-79.3860767","japanese","","","","","","","","","",""
"蜀香苑川菜馆 Szechuan Legend Restaurant","505 Highway 7","Markham","Ontario","","43.8419966","-79.3861737","chinese","","","","","","","","","",""
"真東北餃子館 Chinese Dumpling House","505 Highway 7","Markham","Ontario","","43.8419788","-79.3862754","chinese","","","","","","","","","",""
"西北樓 Shaanxi Restaurant","505 Highway 7","Markham","Ontario","","43.841961","-79.386374","chinese","","","","","","","","","",""
"Asian Legend 味香村","505 Highway 7","Markham","Ontario","","43.8420077","-79.3870072","chinese","","","","","","","","","",""
"Korean Grill House 髙養村","505 Highway 7","Markham","Ontario","","43.8421166","-79.3871628","korean","","","","","","","","","",""
"Goubuli","","","","","43.8436606","-79.3885684","chinese","","http://goubuli.ca/","","","","","","","",""
"Pepper Wok","","","","","43.8438268","-79.388918","chinese;hong_kong","+1-905-889-8928","https://www.pepperwok.ca/","","Mo,We-Su 11:30-19:00; Tu off","","","","","",""
"Noodle Legend","","","","","43.8440671","-79.3890508","chinese","","","","","","","","","",""
"Jim Chai Kee Noodle","","","","","43.8443467","-79.38801","chinese","","","","","","","","","",""
"Yu Seafood","","","","","43.8444058","-79.3873685","seafood;chinese","","","","","","","","","",""
"Akasaka Japanese Restaurant","","","","","43.8436568","-79.3885402","japanese","","","","","","","","","",""
"Adrak Indian Restaurant & Bar","","","","","43.8444374","-79.3852678","indian","","","","","","","","","",""
"Zunyuan Restaurant","","","","","43.8482777","-79.3826491","chinese","","","","","","","","","",""
"Chi Star Restaurant","","","","","43.8483785","-79.3821363","chinese;hong_kong","","","","","","","","","",""
"Uncle Seven Noodle","","","","","43.8484108","-79.38197","chinese","","","","","","","","","",""
"Isaan Der","","","","","43.848365","-79.3822596","thai","","","","","","","","","",""
"Yan's Kitchen","","","","","43.8491917","-79.3841604","chinese","","","","","","","","","",""
"Gaima Rice Bowl","","","","","43.841393","-79.3998141","chinese","","","","","","","","","",""
"Uncle Qiang BBQ","","","","","43.8412964","-79.3979489","","","","","","","","","","",""
"Awesome","","","","","43.8443335","-79.3846775","","","","","","","","","","",""
"Jumbo Lobster","9019 Leslie Street","Richmond Hill","ON","L4B 4A3","43.8477975","-79.3822","seafood;chinese","+19058898898","https://jumbolobster.ca/","","Mo-Su 10:00-23:00","","","","","",""
"Shinta Japanese BBQ","","","","","43.8436545","-79.3881878","japanese","+1-905-597-0305","https://shintabbq.ca/","","Fr-Sa 12:00-24:00; Su-Th 12:00-23:00","","","","","",""
"Richlane Chinese Cuisine","","","","","43.866302","-79.3859268","chinese","","","","","","","","","",""
"Epic Pita Richmond Hill","16 Vogell Road","Richmond Hill","","L4B 3K4","43.8643279","-79.3833572","mediterranean;shawarma","","","","Mo-Sa 11:00-21:00","","no","","","yes","yes"
"Turtle Jacks Muskoka Grill","10 Vogell Road","Richmond Hill","","L4B 3K4","43.8644532","-79.3825151","burger","","","","Mo-Su 11:00-24:00","","no","","","","yes"
"Fraticelli Italian Grill and Bar","10 Vogell Road","Richmond Hill","","L4B 3K4","43.8641226","-79.3823742","italian","","","","","","outside","","","no",""
"Congee Wong 天皇名粥","1 Spadina Road","Richmond Hill","Ontario","L4B 3M2","43.8611157","-79.3945548","chinese;cantonese","+1 (905) 883-1668","https://congee-wong.com/","","Mo-Su 10:00-21:00","yes","","wlan","","yes","yes"
"Haru","10 East Wilmot Street","Richmond Hill","ON","L4B 1G9","43.8533054","-79.3835872","sushi","","","","","","","","","",""
"Bali Restaurant","10 East Wilmot Street","Richmond Hill","ON","L4B 1G9","43.8535999","-79.3839726","balinese","","","","","","","","","",""
"Magic Noodles","","","","","43.8613823","-79.3896268","chinese","","","","24/7","","","","","",""
"Komo Shokudo","","","","","43.8613574","-79.3897525","japanese","","","","","","","","","",""
"Golden Flower Cafe","1 Spadina Road","Richmond Hill","Ontario","L4B 3M2","43.8613588","-79.3953577","chinese","+1-905-780-0023","","","","","","","","",""
"Ming Cuisine","1 Spadina Road","Richmond Hill","Ontario","L4B 3M2","43.8613665","-79.394724","chinese","+1-905-883-7688","https://mingcuisine.ca/","","","","","","","",""
"Northern Cafe","","","","","43.8613016","-79.3956236","chinese","","","","","","","","","",""
"The Keg","1977 Leslie Street","Toronto","","M3B 2M3","43.7588226","-79.3608736","steak_house","+1-416-446-1045","https://thekeg.com/en/locations/leslie-street","","","yes","","","","",""
"Hamaru Sushi","","","","","43.7552172","-79.3600498","sushi","+1-647-352-2425","","","","yes","","","","",""
"Jerusalem Restaurant","4778 Leslie Street","","","","43.7788827","-79.3639364","mediterranean","","","","","","","","","",""
"Peking Man Restaurant","","","","","43.7711556","-79.3692898","","","","","","","","","","",""
"SunShine Spot","796 Sheppard Avenue East","North York","","","43.7700926","-79.3747599","","","","","","","","","","",""
"Bow Thai","","","","","43.7787279","-79.3639099","thai","","","","","","","","","",""
"Congee Wong","11 Ravel Road","Toronto","Ontario","M2J 2X2","43.7906388","-79.3657401","chinese","+1 416-493-8222","https://www.congeewong.com","","","","","","","","yes"
"Chinese Halal Restaurant","","","","","43.7911958","-79.3667693","chinese","","","","","","","","","",""
"Joyous Chinese Cuisine","5505 Leslie Street","North York","Ontario","M2H 3N6","43.7912104","-79.3677019","chinese","+1 905-321-6805","https://joyouschinesecuisine.ca","","Mo-Fr 10:00-11:00; Sa-Su 09:00-11:00","yes","","","","",""
"Ming Lou","10 Ravel Road","North York","","","43.7905909","-79.3660023","chinese","","","","","","","","","",""
"He He Long BBQ Takeout","","","","","43.7910098","-79.366856","chinese","","","","","","","","","",""
"Hot Spicy Spicy","173 Ravel Road","North York","ON","","43.7912263","-79.3674221","chinese","","","","","","","","","",""
"tuanzhang","","","","","43.7906075","-79.3659366","sushi","","","","","","","","","",""
"cross-the-bridge noodle","","","","","43.7911042","-79.3669137","noodle","","","","","","","","","","yes"
"Ko-Sam","","","","","43.7983996","-79.3688939","korean","","","","","","","","","",""
"Marlowe Restaurant & Wine Bar","155 York Boulevard","","","","43.8467387","-79.3748387","","","","","","","","","","",""
"Jack Astor's","York Boulevard","","","","43.8467399","-79.3752823","american","","","","","","","","","",""
"Bombay Bhel","230 Commerce Valley Drive East","Thornhill","on","L3T 7Y3","43.8436444","-79.3774199","indian;international","+1 905-771-6957","https://bombaybhel.foodticket.ca/","","","","","","","yes","yes"
"Baton Rouge","","","","","43.8439732","-79.3777391","steak_house","","","","","","","","","",""
"Host Fine Indian Cuisine","","","","","43.8460417","-79.3791699","indian","","","","","","","","","",""
"Moxie's","159 York Boulevard","","","","43.8478743","-79.3748624","bar_and_grill","","","","","","","","","",""
"Congee Queen","","","","","43.8435807","-79.3781167","chinese","","https://www.congeequeen.com","","","","","","","",""
"KIKU Japanese Cuisine","","","","","43.8437487","-79.3781669","japanese","","https://www.sushikiku.com/","","","","","","","",""
"CHAKO","163 York Boulevard","Richmond Hill","","L4B 4A7","43.8485615","-79.3742522","asian","+1-905-889-7898","http://www.chakobbq.ca","","","","no","","","",""
"Caffe Demetre","100 York Boulevard","Richmond Hill","","L4B 1J8","43.8473022","-79.3770471","dessert","+1-905-881-8406","http://www.caffedemetre.com","","Mo-Th 14:00-23:30; Fr 14:00-01:30; Sa 13:00-01:30; Su 13:00-23:30","","no","","","",""
"Dragon Boat Fusion Cuisine","","","","","43.8487057","-79.3764983","asian","","","","","","","","","",""
"Chongqing Liyuahu Hotpot","","","","","43.8455219","-79.3796039","","","","","","","","","","",""
"Lone Star Texas Grill","","","","","43.8475895","-79.375334","tex-mex","","","","","","","","","",""
"Scaddabush","","","","","43.847322","-79.374349","italian","","https://scaddabush.com/?locationId=842","","","","","","","",""
"Dayali","160 York Boulevard","","","","43.8480523","-79.3761662","chinese","","","","","","","","","","yes"
"Novità Italian Cuisine","","","","","43.8487467","-79.3607961","italian","","","","","","","","","",""
"Touro Brazilian Steakhouse","","","","","43.847059","-79.3763369","brazilian","","","","","","","","","",""
"Hana Don","9255 Woodbine Avenue","Markham","Ontario","L6C 1Y9","43.8704699","-79.3614629","asian","","","","","","","","","",""
"Mr. Greek","861 York Mills Road","North York","","","43.7542107","-79.3515564","greek","","","","","","","","","",""
"Pizza Hut","861 York Mills Road","North York","","","43.7543348","-79.3514333","pizza","+1-416-385-7805","","","","","","","Yum! Brands","",""
"Kiku","","","","","43.7544893","-79.3578227","japanese","","","","","","","","","",""
"Big Smoke Burger","799 York Mills Road","North York","","","43.7526407","-79.359411","","","","","","","","","","",""
"Darband","879 York Mills Road","North York","","M3B 1Y5","43.7551357","-79.3483402","persian","+1-416-445-1777","http://darbandrestaurant.net/","","","","","","","",""
"Windfields Restaurant","","","","","43.7528948","-79.3585989","","","","","","","","","","",""
"Freshii","861 York Mills Road","North York","","","43.7541351","-79.3516423","salad","","","","","","","","","",""
"Captain's Boil","865 York Mills Road","North York","","","43.7548414","-79.3494218","seafood","","","","","","","","","",""
"Via Cibo","","","","","43.7544315","-79.3581065","italian","","","","","","","","","",""
"Gilaneh","900 York Mills Road","North York","","M3B 3H2","43.75636","-79.3495217","international","+1-416-390-9999","http://www.gilaneh.ca","","","","no","","","",""
"Robo Sushi","865 York Mills Road","North York","","M3B 1Y6","43.7548013","-79.3496153","asian","+1-647-349-4900","http://robosushi.org","","Mo-Su 11:30-23:00","","no","","","","yes"
"Me Va Me","","","","","43.7549883","-79.3518911","","","","","","","","","","",""
"Dragon Pearl","","","","","43.7538567","-79.3498563","chinese","","","","","","","","","",""
"Thai one on","","","","","43.7543846","-79.3512812","thai","+1-416-444-7223","https://www.thaioneon.ca/","","","","","","","yes","yes"
"Casa Manila","","","","","43.7550849","-79.3489635","filipino","","","","","","","","","",""
"Dim Sum Kwan","","","","","43.7543289","-79.3585812","chinese","","","","","","","","","",""
"Cucina Di Paisano","856 York Mills Road","North York","ON","M3B 1Y6","43.754785","-79.3496963","italian","+14162225487","https://paisano.ca/","","Su-Th 11:00-21:00; Fr-Sa 11:00-22:00","","","","","yes","yes"
"Taftan Kebob","856 York Mills Road","North York","ON","M3B 1Y6","43.7547521","-79.3498474","persian","+14169017773","http://taftankabab.com/","","Mo-Sa 12:00-23:00; Su 11:00-23:00","","","","","",""
"David Duncan House","","","","","43.758296","-79.3488355","","","","","","","","","","",""
"Tekka Sushi","","","","","43.7740763","-79.3403555","sushi","","","","","","","","","",""
"Saigon Express Pho","","","","","43.7856616","-79.3521109","vietnamese","","","","","","","","","",""
"Viva Shawarma","","","","","43.7858898","-79.3518949","shawarma","","","","","","","","","",""
"India Waale","","","","","43.7855562","-79.3528433","indian","","","","","","","","","",""
"St. Louis Bar & Grill","1800 Sheppard Avenue East","North York","ON","M2J 5A7","43.7771827","-79.3450597","chicken","","","","Su-Th 12:00-23:00; Fr,Sa 12:00-24:00","","","","","",""
"Hana Don Japanese Cuisine and Bar","1800 Sheppard Avenue East","North York","ON","M2J 5A7","43.7774061","-79.344448","japanese","","","","Mo-Sa 09:30-21:30; Su 10:00-20:00","","","","","",""
"Moxie's","1800 Sheppard Avenue East","North York","ON","M2J 5A7","43.7776146","-79.343339","bar_and_grill","","","","Mo-Fr 11:00-12:00, Sa 11:00-01:00, Su 11:00-23:00","yes","","","","",""
"Heart Sushi","1800 Sheppard Avenue East","North York","ON","M2J 5A7","43.7775882","-79.3439511","japanese","","","","","yes","","","","",""
"Grass Mountain Villa Seafood","","","","","43.794685","-79.3532615","","","","","","","","","","",""
"Hickory House Restaurant","","","","","43.803851","-79.341517","","","","","","","","","","",""
"Tasty BBQ Seafood Restaurant","3555 Don Mills Road","","","","43.7944429","-79.3533834","barbecue","","","","","","","","","",""
"Mizuki Sushi","","","","","43.7943634","-79.3537505","sushi","","","","","","","","","","yes"
"Deer Garden Signatures","","","","","43.7943528","-79.3538511","asian","","","","","","","","","",""
"3A Noodle","","","","","43.8076145","-79.3563499","noodle;chinese","","","","","","","","","",""
"Pizza Hut","3555 Don Mills Road","North York","","","43.7932425","-79.353702","pizza","+1-416-502-8065","","","","","","","Yum! Brands","",""
"Sam's Congee Delight","","","","","43.8223313","-79.3516464","chinese","","","","","","","","","",""
"Gold Mark Chinese Restaurant","","","","","43.8264756","-79.3511125","chinese","","http://goldmarkchinesecuisine.com/","","","","","","","",""
"Anju Korean Kitchen","","","","","43.8224676","-79.3503123","korean","","","","","","","","","",""
"Makirrito","","","","","43.8225305","-79.3505011","sushi","","","","","","","","","","yes"
"Carmelina Restaurant","","","","","43.8267512","-79.3512604","italian","","http://www.carmelinarestaurant.com/","","","","","","","",""
"Phoenix Restaurant","7155 Woodbine Avenue","Markham","","L3R 1A3","43.8177662","-79.3492127","hong_kong_cafe","+1-905-940-1113","phoenixrestaurant.cc","","Mo-Su 08:00-22:00","","","","","","yes"
"Gyubee Japanese Grill","7100 Woodbine Avenue","Markham","","L3R 5J2","43.8157243","-79.3498386","japanese","+1-905-604-1904","https://www.gyubeejapanesegrill.com/","","Mo-Su 12:00-23:00","","","","","",""
"Oshio Japanese Restaurant","","","","","43.8129597","-79.3579866","japanese","","","","","","","","","",""
"Lobster Port Restaurant","","","","","43.8264606","-79.3509801","","","","","Mo-Su 09:00-22:30","","","","","",""
"QJD Peking Duck","","","","","43.8167171","-79.3487306","chinese","","","","","","","","","",""
"Taro Fish","","","","","43.8195532","-79.3508452","sushi","","","","","","","","","",""
"Lucky Seafood House","","","","","43.8204374","-79.3512658","chinese","","","","","","","","","",""
"Cravins Caribbean Grill","","","","","43.8202893","-79.3512587","","","","","","","","","","",""
"Ritzy Palace Chinese Cuisine","","","","","43.8212748","-79.3496449","chinese","","","","","","","","","",""
"Hattendo 八天堂","","","","","43.8229545","-79.349751","","","","","","","","","","",""
"吃货部落新派火锅 。鱼市场 Gourmet Tribe","","","","","43.8256471","-79.3524813","chinese","","","","","","","","","",""
"GolfWing","","","","","43.826025","-79.3525285","","","","","","","","","","",""
"Diana's Oyster Bar & Grill","","","","","43.8266665","-79.3512299","seafood","","","","","","","","","",""
"Zen Japanese Restaurant","","","","","43.829116","-79.3532487","japanese","","","","","","","","","",""
"Golden Palace Banquet Hall","3225 Highway 7","Markham","Ontario","L3R 3P3","43.8485567","-79.3501301","chinese;cantonese","","","","","","","","","",""
"Bingz Crispy Burger","3229 Highway 7","Markham","Ontario","L3R 3P3","43.8482552","-79.3493463","asian;burger","","","","","","","","","",""
"Yunshang Rice Noodle","3229 Highway 7","Markham","ON","L3R 3P3","43.848243","-79.3494948","noodle","","","","","","","","","",""
"Kaka All You Can Eat","","","","","43.8484912","-79.348531","","","","","","","","","","",""
"A La Kitchen","","","","","43.8478335","-79.3481823","","","","","","","","","","",""
"Kitchen ALA","","","","","43.8477692","-79.3482166","","","","","","","","","","",""
"Syogun Sushi Bar","","","","","43.844205","-79.3560026","sushi","","http://www.syogunsushibar.com/","","","","","","","",""
"Skyview Fusion Cuisine","","","","","43.8444811","-79.3548034","chinese","","http://www.skyviewfusioncuisine.ca/","","","","","","","",""
"Shanghai Shiknmen Fine Cuisine","","","","","43.8484218","-79.3500819","chinese;shanghainese","","","","","","","","","",""
"Gyumanor Japanese BBQ","3229 Highway 7","Markham","Ontario","L3R 3P3","43.8481587","-79.3499397","japanese","","","","","","","","","",""
"The Owl of Minerva","3229 Highway 7 East","Markham","Ontario","L3R 3P3","43.8481858","-79.3497466","korean;asian","+1 905 477-7475","https://owlfamily.ca/","","Mo-Su 11:00-22:00","","","","","",""
"Wei's Kitchen","","","","","43.8482806","-79.3492718","chinese","","","","","","","","","",""
"Mei Nung Beef Noodle House","","","","","43.8483192","-79.349127","chinese","","","","","","","","","",""
"Sugar Marmalade","3255 Highway 7 East","","","","43.8484026","-79.348093","","+1-905-604-8211","https://www.sugarmarmalade.com","","Mo-Th,Su 12:00-01:00; Fr,Sa 12:00-02:00","","","wlan","","",""
"Mabu Generation","3225 Highway 7","","","","43.8486554","-79.3479022","","","https://www.mabugeneration.com/","","","","","","","",""
"Tracy Dessert","","","","","43.8488391","-79.3477722","dessert","","","","","","","","","",""
"Ding Tai Fung","","","","","43.84845","-79.3483353","chinese","","","","","","","","","",""
"Brown Donkatsu","3235 Highway 7","Markham","Ontario","L3R 3P3","43.8485753","-79.34795","ramen","","","","","","","","","",""
"Taste of Guang Xi","3235 Highway 7","Markham","Ontario","L3R 3P3","43.8487721","-79.3478068","","+1 (365)-608-6066","","","","","","","","",""
"Flaming Kitchen","","","","","43.8484876","-79.3479949","","","","","","","","","","",""
"One Shot BBQ","3235 Highway 7","Markham","Ontario","L3R 3P3","43.8484072","-79.3488267","chinese","","","","","","","","","",""
"Green Tea Restaurant","","","","","43.8484179","-79.3487278","","","","","","","","","","",""
"Cho San Sushi","8374 Woodbine Avenue","Markham","","M4L 3P1","43.8466294","-79.3578085","sushi","","","","","","","","","",""
"Koke Teppanyaki","","","","","43.8437056","-79.3558928","japanese","","","","Mo-Su,PH 11:00-22:30","yes","","","","",""
"Jin's Mi Fen","","","","","43.846527","-79.3577464","chinese","","","","","","","","","",""
"Providential 9","","","","","43.8479496","-79.356874","chinese","","","","","","","","","",""
"Dragon Legend","","","","","43.8450213","-79.3584522","chinese","","","","","","","","","",""
"Kelsey's","3131 Highway 7","","","","43.8501162","-79.3542712","american","","","","","","","","","",""
"Pho Pad Thai","","","","","43.8575918","-79.3585683","thai;asian","","","","","","","","","",""
"Mi-Ne Sushi","","","","","43.8580057","-79.3596627","japanese","","","","","","","","","",""
"The Pho Restaurant","","","","","43.8511878","-79.3543063","vietnamese","","","","","","","","","",""
"Bento Sushi","","","","","43.8524281","-79.3591747","japanese;sushi","","","","","","","","","",""
"Sunset Grill","","","","","43.852907","-79.3592304","american","","","","","","","","","",""
"Woodstone Eatery","","","","","43.8573047","-79.3589705","asian","","https://www.enjoy2eat.ca/woodstone/","","","","","","","",""
"Dickens Restaurant","","","","","43.8572475","-79.3591719","","","","","","","","","","",""
"Win's Seafood Restaurant","50 Lockridge Avenue","Markham","ON","L3R 7R6","43.8717795","-79.3436226","chinese","+1-905-305-6634","","","","","","","","",""
"Friendship Restaurant","","","","","43.775904","-79.322443","","","","","","","","","","",""
"Umami House","2038 Sheppard Avenue East","","","","43.775281","-79.330506","japanese;sushi","","http://umamihouse.ca/","","","","","","","",""
"Lara's Restaurant","","","","","43.7730184","-79.3330817","international","","","","","","","","","",""
"Esquire Restaurant","","","","","43.7744959","-79.3221104","greek","","","","","","","","","",""
"Great Eastern","","","","","43.7744513","-79.3220997","chinese","","","","","","","","","",""
"My Place","","","","","43.7744126","-79.3220675","fish_and_chips","","","","","","","","","",""
"Aoyama Sushi","","","","","43.787137","-79.3291565","sushi","","","","","","","","","",""
"Lavash Armenian Restaurant","2746 Victoria Park Avenue","","","","43.7865027","-79.3286773","armenian","4164192525","https://lavashrestaurant.ca/","","Mo-Su 10:00-22:00","","","","","",""
"Sozo Japanese Cuisine","233 Consumers Road","North York","Ontario","M2J 0E9","43.7708404","-79.3315756","japanese","+14164921818","https://www.sozoramensushi.com/","","","","","","","",""
"Omni Palace","235 Consumers Road","North York","Ontario","","43.7707455","-79.3315407","chinese","+14264930080","https://www.omnipalace.ca/","","","","","","","",""
"Yan Yu Chinese Dining","237 Consumers Road","Toronto","Ontario","M2J 0E9","43.7706119","-79.3314924","chinese","+14167538838","http://www.yanyudining.ca/","","","","","","","",""
"Hotpot 9","241 Consumers Road","North York","Ontario","","43.7704802","-79.3314415","chinese","","https://www.hotpot9.com/","","","","","","","",""
"Satay Sate","12 William Sylvester Drive","Toronto","Ontario","M2J 0E9","43.7702594","-79.3322783","indonesian","+1 416-498-8181","https://www.sataysate.com/","","","","","","","",""
"Gyu-Kaku Japanese BBQ","153 Yorkland Boulevard","North York","Ontario","M2J 0E9","43.7708908","-79.3319296","japanese","+14164923825","https://www.gyu-kaku.com/north-york/","","","","","","","",""
"Primo Veal","151 Yorkland Boulevard","North York","Ontario","","43.7709198","-79.3317714","italian","","","","","","","","","",""
"ZenQ Taiwanese Restaurant","155 Yorkland Boulevard","North York","Ontario","M2J 0E9","43.7708637","-79.332104","taiwanese","+14164908080","http://zenq.ca/","","","","","","","",""
"Flamin' Frost","","","","","43.7885865","-79.3309615","wings","","","","","","","","","",""
"Rosemary & Thyme","","","","","43.7881989","-79.3304224","brunch;breakfast;greek","","","","","","","","","",""
"Buk Chang Dong Soon Tofu","","","","","43.7755886","-79.3252357","korean","","https://bukchangdong5sc.com/","","","","","","","",""
"Chuck E. Cheese","","","","","43.7754782","-79.3257772","pizza","","","","","","","","","",""
"Aladdin Shawarma House","","","","","43.7756032","-79.3308728","shawarma;middle_eastern","","https://www.aladdinshawarmahouse.ca/","","","","","","","",""
"Konak Turkish Cuisine","","","","","43.771739","-79.3206428","turkish","","","","","","","","","",""
"Tagpuan Toronto","","","","","43.7884364","-79.330591","filipino","","","","","","","","","",""
"Noodle Delight","","","","","43.7725454","-79.3207101","noodle","","","","","","","","","",""
"Captain's Catch","2111 Sheppard Avenue East","North York","ON","","43.774945","-79.3338865","chinese","","","","","","","","","",""
"紫京盛宴","","","","","43.8064589","-79.3385316","chinese","","","","Mo-Fr 10:00-22:00; Sa-Su 09:00-22:00","","","","","",""
"Xin Jiang Barbeque Restaurant","3330 Pharmacy Avenue","Toronto","","","43.8045268","-79.3311422","chinese","","","","","","","","","",""
"Kachiguda Junction","2398 Finch Avenue East","","","","43.7942757","-79.3297809","indian","416-491-3935","https://www.kachigudajunction.ca/","","","","","","","",""
"Litsea Cuisine","","","","","43.8056389","-79.3375117","","","","","","","","","","",""
"Phoenix Club","3628 Victoria Park Avenue","","","","43.8070509","-79.3387215","","","","","","","","","","",""
"Pepper Meets Pepper Hunan Cuisine","3618 Victoria Park Avenue","","","","43.8068401","-79.3386459","chinese","","","","","","","","","",""
"Dilli Wala","","","","","43.7935163","-79.3244891","indian","416 499 4640","","","","","","","","",""
"Lahmajoun Factory","","","","","43.7934188","-79.3245675","","","https://lahmajounfactory.com/","","","","","","","",""
"Metro Square Café Restaurant","3636 Steeles Avenue East","Markham","ON","L3R 1K9","43.8184455","-79.3310269","chinese;sandwich;breakfast;tea;coffee_shop","+1-905-305-6226","","","Mo-Su 08:00-22:00","","","wlan","","",""
"Ajisen Ramen","7010 Warden Avenue","Markham","","","43.8204645","-79.3253554","ramen","","","","","","","","","",""
"Pho 88","","","","","43.8144598","-79.3236704","vietnamese","","","","","yes","","","","",""
"Chinese Dumpling House","","","","L3R 1K9","43.8194621","-79.330856","chinese","+1-905-947-9880","","","","","","","","",""
"Xin Jiang Restaurant","","","","","43.8192137","-79.330939","chinese","","","","","","","","","",""
"Keung's Delight","7030 Warden Avenue","Markham","Ontario","L3B 5Y2","43.8208621","-79.3265685","","+1-905-948-9000","http://www.keungsdelight.com","","Mo-Th 10:00-01:30; Fr-Sa 10:00-02:00; Su 10:00-01:30","yes","no","","","",""
"Sam Woo BBQ","375 Bamburgh Circle","Scarborough","","M1W 3Y1","43.8157677","-79.322598","chinese","","","","","yes","","","","",""
"Maki Momo","395 Bamburgh Circle","Scarborough","","M1W 3Y1","43.8159562","-79.3228249","sushi","","","","","","","","","",""
"Good Taste Casserole Rice","325 Bamburgh Circle","Scarborough","","M1W 3Y1","43.8145473","-79.3232699","chinese","","","","","yes","","","","",""
"Jeon Ju Hyang Restaurant","325 Bamburgh Circle","Scarborough","","M1W 3Y1","43.8144871","-79.3235347","","","","","","yes","","","","",""
"Crown Jewel Fine Dining","325 Bamburgh Circle","Scarborough","","M1W 3Y1","43.8143939","-79.3241031","","","","","","yes","","","","",""
"Indias Taste","","","","","43.8248172","-79.3395648","indian","","https://indiastaste.ca/","","","","","","","",""
"Dayali Beijing Roast Duck","20 Gibson Drive","Markham","","L3R 8B5","43.8244326","-79.3268368","chinese","+1-905-604-8680","","","Mo-Fr 11:30-14:30,16:30-20:00","","","","","",""
"Yunshang Rice Noodle","7060 Warden Avenue","Markham","ON","L3B 5V1","43.8210635","-79.3266982","noodle","","","","","","","","","",""
"KIN KIN O-Ka-Ne by Oo-Kinza Fish House","","","","","43.8144224","-79.3239898","japanese;sushi","","","","","yes","","","","",""
"Fortune Stone Restaurant","","","","","43.8200521","-79.3255303","chinese;hong_kong","","","","","","","","","",""
"Sakura Sushi","","","","","43.8203645","-79.3256103","sushi","","","","","","","","","",""
"Du Hsiao Yueh","7040 Warden Avenue","Markham","Ontario","L3R 5Y3","43.8210412","-79.3254146","chinese;taiwanese","+19053002578","https://noodle1895.ca/","","Mo-Su 11:30-21:00","yes","no","","","",""
"Momo Koko","7050 Warden Avenue","Markham","Ontario","","43.8212722","-79.3255528","japanese;sushi","","","","","","","","","",""
"BAO EXPRESS","","","","","43.8224692","-79.3257902","chinese;chinese_buns","","","","","","","","","",""
"Dagu Rice Noodle Markham","","","","","43.8246839","-79.3261012","chinese;noodle","","","","","","","","","",""
"JIYU Thai Seafood Hot Pot","","","","","43.8245314","-79.326398","thai;hotpot","","","","","","","","","",""
"Yin Ji Chang Fen (Rice Noodle Roll)","","","","","43.8203155","-79.3252626","chinese","","","","","","","","","",""
"Whole Sheep Feast Restaurant","","","","","43.8194789","-79.330684","chinese","","","","","","","","","",""
"MeetR1ice Noodle","","","","","43.8244649","-79.3266455","chinese","","","","","","","","","",""
"Fish Soup for You","","","","","43.8244891","-79.3265541","chinese","","","","","","","","","",""
"Wagyu Sushi","","","","","43.8194","-79.3309842","sushi","","","","","","","","","",""
"Tai Ping Hsiang B.B.Q.","","","","","43.81874","-79.330965","chinese","","","","","","","","","",""
"Cheng Man Xiang Noodle House","","","","","43.8187164","-79.3310225","chinese","","","","","","","","","",""
"Happy Fishman","","","","","43.8186822","-79.3311838","chinese","","","","","","","","","",""
"Hongming BBQ","","","","","43.8192014","-79.3305657","chinese","","","","","","","","","",""
"New Century Restaurant","","","","","43.8196279","-79.3312684","","","","","","","","","","",""
"名門金宴","4125 Steeles Avenue East","Scarborough","Ontario","","43.8196245","-79.322363","chinese","","https://www.casaimperial.ca/","","","","","","","",""
"Boston Pizza","Warden Avenue","Markham","Ontario","","43.82064","-79.325502","pizza","","","","","","","","","",""
"Milestones","169 Enterprise Boulevard","Markham","ON","L6G 0E7","43.8487848","-79.3240214","bar_and_grill","+1-905-415-3483","https://www.milestonesrestaurants.com/","","Mo-Th 11:00-00:00; Fr 11:00-01:00; Sa 10:00-01:00; Su 10:00-23:00","","","","","",""
"Kiu Japanese Restaurant","169 Enterprise Boulevard","Markham","ON","L6G 0E7","43.8490602","-79.3237694","asian;japanese","+1-905-513-6368","http://www.ki-u.com","","Su-Th 11:30-15:00,17:30-22:30; Fr-Sa 11:30-15:00,17:30-23:30","","","","","",""
"Good Catch Boil House","","","","","43.8496058","-79.3224689","seafood","","","","","","","","","",""
"go for tea","","","","","43.8490989","-79.32304","chinese;bubble_tea","","","","","","","","","",""
"Terre Rouge","162 Enterprise Boulevard","Markham","ON","L6G 0A2","43.8493203","-79.3258843","french","+1-905-597-5668","https://www.terrerougetoronto.com/","info@terrerougetoronto.com","Mo-Fr 11:00-15:00,17:00-22:30; Sa-Su 17:00-22:30","","","","","",""
"Demetres Downtown Markham","180 Enterprise Boulevard","Markham","ON","L6G 0G4","43.849912","-79.32318","dessert","","https://demetres.com/","","","","","","","",""
"Draco Restaurant + Bar","","","","","43.8497154","-79.323906","","","","","","","","","","",""
"Ruth's Chris Steak House","","","","","43.8496195","-79.3245306","american;steak_house","","","","","","","","","",""
"St. Louis Bar & Grill","3621 Highway 7","Markham","ON","L3R 0G6","43.8542807","-79.3369639","chicken","+1-905-604-7788","https://www.stlouiswings.com/locations/ontario-north/markham/","","Mo-Th 11:30-01:00, Fr-Sa 11:30-02:00, Su 11:30-00:00","","outside","","","",""
"Gal's Sushi","3621 Highway 7","Markham","ON","L3R 0G6","43.8542443","-79.3371056","sushi","+1-905-305-7753","https://www.galsushi.com/","","Mo-Sa 11:30-22:30, Su 11:30-22:00","","no","","","",""
"Casa Victoria Fine Dining and Banquet","4-8601 Warden Avenue","Markham","","L3R 0B5","43.8584096","-79.3327888","asian","+1-905-948-1618","https://www.casavictoria.ca/","","","","no","","","",""
"Wonton Hut","3760 Highway 7","Markham","","L3R 0N2","43.8566126","-79.3324814","chinese","+1-905-604-9060","http://www.wontonhut.com/","","Tu-Su 11:00-20:00; Mo off","","no","","","",""
"Cora","3760 Highway 7","Markham","","L3R 0N2","43.8565805","-79.332738","breakfast","+1-905-489-2446","","","Mo-Sa 06:00-15:00; Su 07:00-15:00","","","","","",""
"Lanna Cuisine","170 Enterprise Boulevard","Markham","ON","L6G 0A2","43.8500289","-79.3247678","thai","","https://lannacuisine.com/","","","","","","","",""
"Chloe’s Garden Restaurant 荔園餐廳","3621 Highway 7","Markham","ON","L3R 0G6","43.8540592","-79.3368995","chinese","+1 (905) 604-4770","http://www.chloesgardenrestaurant.com/","","Tu-Mo 11:00-20:00","","","","","",""
"Xiang Zi","","","","","43.8565263","-79.323719","chinese","","","","11:00-15:30,17:00-22:30","","","","","",""
"Sansotei Ramen","","","","","43.8569997","-79.3236118","ramen","","","","","","","","","",""
"China Cottage","","","","","43.759348","-79.3106087","chinese","","","","","","","","","",""
"Mamajoun","209 Ellesmere Road","","","","43.7603865","-79.3025045","armenian;pizza","","https://mamajoun.com/","","","","","","","",""
"Gabby's","","","","","43.7571827","-79.3129138","","","","","","","","","","",""
"Chris Jerk","2570 Birchmount Road","Scarborough","Ontario","","43.7896221","-79.302397","jamaican","+1-416-297-5375","","","","","","","","",""
"Remezzo","","","","","43.777633","-79.30791","","","","","","","","","","",""
"Red Lobster","","","","","43.778359","-79.311917","seafood","","","","","","","","","",""
"Crystal Buffet","","","","","43.7700382","-79.3010331","","","","","","","","","","",""
"Mexico Lindo","","","","","43.7896937","-79.3028476","mexican","","","","","","","","","",""
"Fortune House Restaurant","2598 Birchmount Road","Scarborough","","M1T 2M5","43.7899167","-79.3029469","chinese","","","","","","","","","",""
"Hunter's Pizza & Souvlaki House","2574 Birchmount Road","Scarborough","","M1T 2M5","43.7895943","-79.3026366","greek","","","","","","","","","",""
"Bong Lua","","","","","43.7896026","-79.3025066","vietnamese","","","","","","","","","",""
"Mr. Congee Chinese Cuisine","2900 Warden Avenue","Scarborough","ON","M1W 2S8","43.7988208","-79.3183756","chinese","","","","","","","","","",""
"Yamamoto Japanese Cuisine","","","","M1W 1S8","43.7985175","-79.3185315","japanese","+1 416-493-8858","","","","","","","","",""
"Pho Quinn","","","","","43.7981643","-79.3182661","vietnamese","","","","","","","","","",""
"Shanghai Frozen Dim Sum","2551 Warden Avenue","","","","43.791734","-79.312867","chinese","","","","","","","","","",""
"Happy Lamb Hot Pot","","","","","43.7915519","-79.3127962","mongolian;hotpot","","","","","","","","","",""
"Jikoni Grill","2535 Warden Avenue","","","","43.7912706","-79.3128112","","","","","","","","","","",""
"Nantha","","","","","43.7981065","-79.3182258","indian","","","","","","","","","",""
"Fisherman Lobster King","","","","","43.7984485","-79.3182526","seafood;chinese","","","","Mo-Su 11:00-22:00","","","","","",""
"Pit Stop Tropical Restaurant","","","","","43.8118117","-79.302331","","","","","","","","","","",""
"Fishmen Wharf Seafood","","","","","43.8226464","-79.3134484","seafood","","","","","","","","","",""
"Ming's Noodle Cafe","","","","","43.820952","-79.3052626","asian","","","","","","","","","",""
"Kim Vo Vietnamese Restaurant","","","","","43.8232429","-79.3052682","vietnamese","","http://kimpoviet.com","","Mo-Su 11:00-21:00","","","","","",""
"S'en Vietnamese Cuisine","","","","","43.8253397","-79.3063596","","","","","","","","","","",""
"Oishiii Sweets Cafe","","","","","43.8180525","-79.3053358","japanese;dessert","","","","","","","","","",""
"Chef 88 Oriental Cuisine","","","","","43.8176666","-79.3038783","chinese","","","","","","","","","",""
"Nichiban Sushi 4 U","","","","","43.8230575","-79.306079","sushi","","","","","","","","","",""
"The Owl of Minerva","","","","","43.8248571","-79.3006137","korean","","https://owlfamily.ca","","","","","no","","","yes"
"Graceful Vegetarian","4675 Steeles Avenue East","","","M1V 0B7","43.8236308","-79.3024549","asian;chinese","+1 416 321 8381","","","Th-Tu 11:00-21:00","","","","","",""
"Chef 88 Fine Dining 百樂軒海鮮酒家","1661 Denison Street","Markham","Ontario","L3R 6E4","43.8331438","-79.3056653","chinese","","","","","","","","","",""
"Happy BBQ","7750 Kennedy Road","Markham","","L3R 0A7","43.8425655","-79.3057929","","+1-905-470-0668","","","Tu-Su 10:00-18:00","","","","","","yes"
"Noble Seafood Chinese Cuisine","","","","","43.8319365","-79.307508","seafood;chinese","+1-905-947-8288","","","","","","","","",""
"Lucky Noodle","","","","","43.8337017","-79.3068573","noodle;chinese","","","","","","","","","",""
"Cafe Hollywood","","Markham","","","43.8321495","-79.3062515","","","","","","","","","","",""
"Pho Dac Biet Vietnamese Restaurant","","","","","43.8590338","-79.3036163","vietnamese","","","","","","","","","",""
"Jake's on Main","202 Main Street Unionville","","","L3R 2G9","43.8680621","-79.3127617","international;pizza;pasta;sandwich;italian;burger","+1-905-470-6955","http://www.jakesonmainunionville.com","ronatjakes@hotmail.com","","","","","","",""
"Old Country Inn Restaurant","","","","","43.8679631","-79.3125381","","","","","","","","","","",""
"Mom's Pan-Fried Bun 老娘水煎包","","","","","43.8604166","-79.3033394","chinese","","","","","","","","","",""
"The Unionville Arms","189 Main Street Unionville","Unionville","","L3R 2G8","43.8677621","-79.3119283","pub","+1-905-477-2767","https://unionvillearms.ca/","","Mo-Fr 11:30-02:00; Sa,Su 11:00-02:00","","outside","","","",""
"Blacksmith's Bistro","166 Main Street Unionville","","","L3R 2G9","43.8669888","-79.3121587","fine_dining;international;italian;mediterranean;pasta;pizza;sandwich","+1-905-305-0503","http://www.blacksmithsbistro.com","contact@blacksmithsbistro.com","Mo-Su 12:00-15:00,17:00-21:00","","","","","",""
"Next Door Restaurant","139 Main Street Unionville","","","L3R 2G6","43.8654942","-79.3100848","asian;american;burger;pub","","","","Mo-Su 11:00-02:00","","","","","",""
"Ambiyan Restaurant & Bar","149 Main Street Unionville","Markham","","L3R 2G8","43.8663168","-79.3111446","indian;international","+1-905-480-0094","https://www.ambiyan.com/","ambiyan@ambiyan.com","Mo 16:00-22:00; Tu-Th 11:30-22:00; Fr-Sa 11:30-23:00; Su 11:30-22:00","","","wlan","","",""
"Chat Bar 九号小院","187 Main Street Unionville","","","L3R 2G8","43.8675164","-79.3119218","international;chinese;barbecue","+1-905-604-4117","http://www.planetamexicomarkham.com","reservations@planetamexicomarkham.com","Mo-Th 16:00-23:00; Fr 15:00-23:00, Sa-Su 12:00-23:00","","","","","",""
"Il Postino Ristorante","186 Main Street Unionville","","","L3R 2G9","43.8675421","-79.3123703","international;italian","+1-905-940-1555","http://www.ilpostinoristorante.com","","Mo-Fr 12:00-15:00,17:00-22:00; Sa 17:00-22:00","","","","","",""
"Boosters On Main","","","","","43.8671614","-79.3118627","","","","","","","","","","",""
"Kore Chicken","10 South Unionville Avenue","","","L3R 4P9","43.8558005","-79.3039396","korean","+1-647-428-9997","http://1966big.wixsite.com/korechicken","","Mo-Su 09:00-12:00","","","wlan","","",""
"Mr. Chin","","","","","43.8607805","-79.3112375","chinese","","","","","","","","","",""
"Mr. Jerk","","","","","43.8608084","-79.3111664","","","","","","","","","","",""
"Hibiki","","","","","43.8613199","-79.3115404","japanese","","","","","","","","","",""
"Olde Village Bistro","","","","","43.8612158","-79.3117254","","","","","","","","","","",""
"nam2 Vietnamese","","","","","43.8605229","-79.3043612","vietnamese","","","","","","","","","","yes"
"Manna Kitchen 瑪娜廚房","","","","","43.8611134","-79.3036806","chinese","","","","","","","","","",""
"Mr. Congee 龍粥記","","","","","43.8604649","-79.3035264","chinese","","","","","","","","","",""
"Sushi Tenon Vegetarian Cuisine","","","","","43.8600174","-79.3033531","","","","","","","","","","",""
"Top Choice Restaurant 阿一小廚","","","","","43.8599932","-79.3034904","chinese","","","","","","","","","",""
"Bowl Kee Restaurant 煲仔記","","","","","43.8590146","-79.3037914","chinese","","","","","","","","","",""
"NKS Banquet Hall 帝寶名宴","","","","","43.859066","-79.3041452","chinese","","","","","","","","","",""
"Ajisen Ramen","","","","","43.8592506","-79.3042175","ramen","","","","","","","","","",""
"Keung's Restaurant 强記雞粥","","","","","43.8606186","-79.3040135","chinese","","","","","","","","","",""
"Yunshang Rice Noodle","","","","","43.8607993","-79.3040884","noodle","","","","","","","","","",""
"Yang's Braised Chicken Rice 杨铭宇黄焖鸡米饭","","","","","43.8607852","-79.3042062","chinese","","","","","","","","","",""
"369 Shanghai Dim Sum","","","","","43.8607548","-79.3043265","chinese","","","","","","","","","",""
"New City Restaurant 新城市餐廳","","","","","43.8612116","-79.3051448","chinese","","","","","","","","","",""
"Good Taste Casserole Rice 知味煲仔饭","","","","","43.8612432","-79.3049301","chinese","","","","","","","","","",""
"Blue Ocean Cafe 藍海餐廳","","","","","43.8612963","-79.3047185","chinese","","","","","","","","","",""
"Sweet Culture 架勢堂","","","","","43.8613047","-79.3046531","chinese;dessert","","","","","","","","","",""
"Eat With Fun Roast 明惠燒臘茶餐廳","","","","","43.8613731","-79.3043199","chinese","","","","","","","","","",""
"Ming's Restaurant 大明港式茶餐廳","","","","","43.8613735","-79.3041096","chinese","","","","","","","","","",""
"广州西关食堂","","","","","43.860287","-79.3033101","chinese","","","","","","","","","",""
"Little Jakarta","","","","","43.8602772","-79.303619","indonesian","","","","","","","","","",""
"Big Beef Bowl 牛大碗","","","","","43.8603524","-79.303325","chinese","","","","","","","","","",""
"Les Chateaux Restaurant 雅閣餐廳","","","","","43.8599284","-79.3049205","chinese","","","","","","","","","",""
"Amazing Seafood House","","","","","43.8627905","-79.3007394","","","","","","","","","","",""
"King of Wings","","","","","43.8627381","-79.3009369","","","","","","","","","","",""
"Meet Fresh","28 South Unionville Avenue","Markham","Ontario","L3R 4P9","43.8560573","-79.3036116","taiwanese;dessert","+1-905-604-2466","https://meetfreshcanada.com/","info@meetfreshcanada.com","","","","wlan","","",""
"Garden Hong Kong Cafe","28 South Unionville Avenue","Markham","Ontario","L3R 4P9","43.8561273","-79.3035489","chinese;cantonese","","","","Tu-Su 11:00-20:00","","","","","",""
"Il Postino Ristorante","","","","","43.8675466","-79.3123791","italian","","","","","","","","","",""
"Unionville Arms","","","","","43.8677835","-79.3118645","","","","","","","","","","",""
"Jake's On Main","","","","","43.8681045","-79.3125798","burger;regional;pizza;american;sandwich;breakfast;grill","","","","","","","","","",""
"La Grotta","","","","","43.8683336","-79.3120296","","","","","","","","","","",""
"Chinese Hut","","","","","43.7661431","-79.2816389","chinese","","","","","","","","","",""
"Mughal Darbar","1885 Kennedy Road","","","M1P 2L9","43.7665183","-79.2805594","indian","+1 416-412-2929","http://mughaldarbar.ca/","","Mo-Su 08:00-23:00","yes","no","","","","yes"
"Gibbos","","","","","43.76608","-79.2818128","indian","","","","","","","","","",""
"Shot House Bar & Grill","","","","","43.7661897","-79.2816857","","","","","","","","","","",""
"Mishka’s Restaurant & Bar","880 Ellesmere Road","","","","43.766253","-79.2821824","","+1 416-647-6474","","","","","","","","",""
"Hana Ramen","1891 Kennedy Road","","","M1P 2L9","43.7668236","-79.2806227","noodle;ramen;japanese;sushi","+1 416 299 8588","","","Mo-Su 11:00-22:00","","","","","",""
"Pizza Hut","592 Ellesmere Road","Scarborough","","","43.7637688","-79.2921125","pizza","+1-416-298-6628","","","","","","","Yum! Brands","",""
"Wild Wing","11 William Kitchen Road","Scarborough","","","43.7729472","-79.2801147","chicken","","","","","","","","","",""
"Kerala Kitchen","","","","","43.780358","-79.2989218","","","","","","","","","","",""
"The Royal Chinese Restaurant","","","","","43.7804393","-79.2986401","chinese","","","","Mo-Su 15:00-01:00","","","","","",""
"Kub Khao Thai Eatery","","","","","43.7801749","-79.2998514","thai","","","","","","","","","",""
"Congee Queen","3850 Sheppard Avenue East","Scarborough","","M1T 3L4","43.7839264","-79.2923357","chinese","","","","","","","","","","yes"
"Nando's","15 William Kitchen Road","","","","43.7731034","-79.2811579","chicken;portuguese","","","","Mo-Su 11:00-22:00","","","","","",""
"Dosa Boyz / Hakka Boyz","35 William Kitchen Road","Scarborough","Ontario","M1P 5B7","43.7741525","-79.2825641","indian;asian","+1 416-292-6363","https://dosaboyz.ca/","","Mo-Su 11:00-23:00","","","","","",""
"Kabob Guys","4045 Sheppard Avenue East","","","M1S 1S8","43.7833956","-79.2864383","","+16477480003","https://thekabobguys.ca/","","","","","","","",""
"Yunshang Rice Noodle","4186 Finch Avenue East","Scarborough","ON","M1S 3V1","43.803588","-79.288112","noodle","+1 416 298 4567","","","11:00-22:00","","","","","",""
"Vietnam Noodle Star","","","","","43.8045658","-79.2876632","vietnamese","","","","","","","","","",""
"Health Gourmet","3278 Midland Avenue","","","M1V 0C9","43.8055503","-79.2879023","chinese","","","","","","","","","",""
"Made in China Café","","","","","43.8058968","-79.2885031","chinese;asian","","","","","","","","","",""
"Korean Grill House","","","","","43.8059264","-79.2885829","korean","","","","","","","","","",""
"Mashengligong 麻省理功","","Toronto","","M1V 0C5","43.8043342","-79.2882533","","","","","11:30-23:30","","","","","",""
"Baozi Lin","4188 Finch Avenue East","","","M1S 5E7","43.8043815","-79.2884147","","","","","","","","","","",""
"Flaming Kitchen","3250 Midland Avenue","Scarborough","Ontario","M1V 0C4","43.8050434","-79.2874046","","(416) 297-6055","https://www.flamingkitchen.ca/","","","","","","","",""
"Aroma Delight Palace","3250 Midland Avenue","","","M1V 4A1","43.8049389","-79.2877532","","","","","","","","","","",""
"Yuloudong","","","","M1V 0C4","43.8049704","-79.288011","","","","","","","","","","",""
"North East BBQ","4186 Finch Avenue East","","","M1S 3V1","43.8042324","-79.2884498","","","","","","","","","","",""
"Pho Vietnam Family Restaurant","","","","","43.8043052","-79.290544","","","","","","","","","","",""
"Kung Fu Duck","3270 Midland Avenue","","","","43.8051887","-79.2895656","","","","","","","","","","",""
"Qing Feng Bun","3278 Midland Avenue","","","","43.8054055","-79.2887126","","","","","","","","","","",""
"Yunnan Steam Fish Pot Restaurant","3280 Midland Avenue","","","M1V 0C7","43.8058505","-79.2886684","","","","","","","","","","",""
"Beijing Restaurant","3278 Midland Avenue","","","","43.8053951","-79.2887817","chinese","","","","","","","","","",""
"a! Xiang Noodle","Midland Avenue","Scarborough","","M1V 0C5","43.8047485","-79.2886047","chinese","","","","","","","","","",""
"DM Chicken","3250 Midland Avenue","Scarborough","","M1V 0C7","43.8049218","-79.2879262","chinese","","","","","","","","","",""
"Harbin BBQ","3278 Midland Avenue","Scarborough","","M1V 0C9","43.8055245","-79.2881096","chinese","","","","","","","","","",""
"Mr Six Fried Chicken","3250 Midland Avenue","Scarborough","","M1V 0C7","43.8048908","-79.2881039","chinese","","","","","","","","","",""
"Shananxi Legend","3278 Midland Avenue","Scarborough","","M1V 4W9","43.8053446","-79.2890086","chinese","","","","","","","","","",""
"Fishman Lobster Clubhouse Restaurant","","","","","43.8018121","-79.2955747","seafood","","","","","","","","","",""
"","3290 Midland Avenue","","","M1V3Z9","43.8066974","-79.289497","vietnamese","4163328688","https://linhanhvietnamesecuisine.com/","","Mo-Su 11:00-23:00","","","","","",""
"Chungchun Rice Dog Scarborough","","","","","43.8048966","-79.2882431","","","https://www.chungchunricedog.ca/","","","","","","","",""
"Chungchun Rice Dog Scarborough","350 Midland Avenue","","","M1V 0C7","43.8048966","-79.2882431","","","https://www.chungchunricedog.ca/","","","","","","","",""
"chako","","","","","43.8143103","-79.2947473","","","","","","","","","","",""
"Sing Viet Thai","","","","","43.814549","-79.293211","","","","","","","","","","",""
"Lobster House","","","","","43.8278449","-79.2879556","chinese","","","","","","","","","",""
"Daldongnae","4771 Steeles Avenue East","Scarborough","ON","","43.8253492","-79.2988888","korean","+1 416-335-4771","https://www.daldongnaebbq.com/","","","","","","","","yes"
"Gyubee Japanese Grill","3720 Midland Avenue","Scarborough","Ontario","M1V 5L3","43.8157799","-79.2931245","japanese","+1 416-299-8968","https://www.gyubeejapanesegrill.com/","","Mo-Su 12:00-23:00","","","","","",""
"Happy Valley Village","3700 Midland Avenue","Toronto","Ontario","M1B 0B4","43.8147617","-79.2926228","chinese","+1 416-321-2685","","","Mo-Su 11:00-24:00","","","","","",""
"Ajisen Ramen Scarborough","3720 Midland Avenue","Toronto","Ontario","M1V 0G3","43.8155375","-79.2930632","ramen","+1 4416-901-6889","","","Mo-Su 11:00-2:00","","","","","",""
"Hey Noodles (Scarborough)","3700 Midland Avenue","Toronto","Ontario","M1B 0B4","43.8147201","-79.2930557","chinese;noodle","+1 647-352-5333","https://www.heynoodles.com/","","Mo-Su 11:00-4:00","","","","","",""
"Sudden Summer Cafe","3700 Midland Avenue","Toronto","Ontario","M1B 0B3","43.8152628","-79.2928842","chinese","+1 647-236-3938","","","Mo-Su 11:30-21:00","","","","","",""
"Daimaru Shabu Shabu (Scarborough)","390 Silver Star Boulevard","Toronto","ON","M1V 0E3","43.8151554","-79.2962473","asian;hotpot","+1 647-559-7580","https://www.daimarushabushabu.com/","","Mo-Su 12:00-00:00","","","","","",""
"La Pho Vietnamese Restaurant","390 Silver Star Boulevard","Toronto","ON","M1V 0E3","43.8151353","-79.2963742","asian","+1 416-291-8889","https://la-pho.com/?utm_source=google&utm_medium=maps&utm_campaign=website","","Tu-Su 11:00-21:00","","","","","",""
"PanPan Noodle Bar","390 Silver Star Boulevard","Toronto","ON","M1V 0E3","43.8150377","-79.2959706","chinese;noodle","+1 416-361-1666","","","Mo-Su 11:30-2:30","","","","","",""
"Lucky Ace BBQ","390 Silver Star Boulevard","Toronto","ON","M1V 0E3","43.8148503","-79.2967923","chinese","+1 416-292-9688","","","We-Mo 11:00-0:00","","","","","",""
"One Plus One BBQ","633 Silver Star Boulevard","Toronto","ON","M1V 5N1","43.8225938","-79.2987538","chinese","+1 647-686_8922","https://1plus1bbq.com/?utm_source=google&utm_medium=maps&utm_campaign=website","","Mo-Su 16:00-3:00","","","","","",""
"Jiangnan Handmade Dim Sum","633 Silver Star Boulevard","Toronto","ON","M1V 5N1","43.8223359","-79.2986304","chinese","+1 416-299-6206","https://www.jiangnanhandmadedimsum.com/","","Mo-Su 10:00-2:30","","","","","",""
"Hunan Style Restaurant","633 Silver Star Boulevard","Toronto","ON","M1V 5N1","43.8224994","-79.2987104","chinese","+1 416-893-9733","http://www.xiangcunfaxian.com/","","Mo-Su 11:30-23:45","","","","","",""
"AKA-ONI Ramen&Izakaya (Scarborough)","633 Silver Star Boulevard","Toronto","ON","M1V 5N1","43.8224142","-79.2986682","japanese","+1 416-298-3828","http://akaoni.ca/","","Mo-Su 11:30-15:30; 17:00-23:30","","","","","",""
"Deer Garden Signatures Scarborough","633 Silver Star Boulevard","Toronto","ON","M1V 5N1","43.8215594","-79.2987052","chinese","+1 416-609-2888","https://www.deergarden.net/","","Mo-Su 11:00-21:30","","","","","",""
"Gyu Hito Japanese BBQ Restaurant","633 Silver Star Boulevard","Toronto","ON","M1V 5N1","43.8219601","-79.2984646","japanese","+1 416-222-9308","http://www.gyuhito.ca/","","Mo-Su 16:30-22:00","","","","","",""
"I'm a little hot crab","633 Silver Star Boulevard","Toronto","ON","M1V 5N1","43.8216488","-79.2984118","chinese","+1 416-293-0651","","","TH-Tu 12:30-23:00","","","","","",""
"Ho Ban Korean Restaurant","633 Silver Star Boulevard","Toronto","ON","M1V 5N1","43.8225574","-79.2987387","korean","+1 416-412-7453","","","Mo-Su 11:00-23:00","","","","","",""
"Midori Ramen","","","","","43.8147579","-79.2929084","ramen","","","","","","","","","",""
"Swiss Chalet","5070 Highway 7","Markham","Ontario","L3R 4M9","43.8666846","-79.2880572","chicken","+1 905 305 1809","","","","","","","","",""
"Pizza Hut","5071 Highway 7","Markham","Ontario","L3R 1N3","43.8659151","-79.2878196","pizza","+1 905 470 7060","","","","","","","","",""
"Ithaca Restaurant","","","","","43.8683837","-79.2826437","","","","","","","","","","",""
"Congee Queen Resturant","","","","","43.8685152","-79.2822405","chinese","","","","","","","","","",""
"All Stars Steak House","","","","","43.868591","-79.2819173","chinese;steak_house","","","","","","","","","",""
"Kitchen M.","","","","","43.8680106","-79.2837996","chinese","+1-905-294-8628","","","","","","","","",""
"Pho 99","","","","","43.868226","-79.2839826","vietnamese","","","","","","","","","",""
"Joey","","","","","43.867765","-79.2887729","regional","","","","","","","","","",""
"Pho Quinn Authentic Vietnamese Cuisine","5384 Highway 7","Markham","Ontario","L3P 1B9","43.8682597","-79.2833226","vietnamese","+1 905 201 8819","https://phoquinn.com/","","Mo-Su 10:30-20:30","","","","","",""
"Yin Ji Chang Fen","","","","","43.8648029","-79.2926381","","","","","","","","","","",""
"Fu Kee Bao Dim","","","","","43.8649539","-79.2919974","chinese","","https://fukeebaodim.com/","","","","","","","",""
"Phoenix Restaurant","1 Raymerville Drive","Markham","Ontario","L3P 5J5","43.8765411","-79.2862039","asian","+1 905 471 6536","https://www.phoenix-restaurant.ca/","","Mo-Su 08:00-22:00","","no","","","","yes"
"Kairali","1210 Kennedy Road","Scarborough","","M1P 2L1","43.7548314","-79.2772691","indian","","","","","","","","","",""
"Karaikudi Chettinad South Indian Restaurant","","","","","43.7561086","-79.276094","","","","","","","","","","",""
"Laguna Bay","","","","","43.7504046","-79.275538","filipino","","","","","","","","","",""
"Lucky Indian Style Chinese Food","2650 Lawrence Avenue East","Scarborough","","","43.7526926","-79.2649288","indian;chinese","","","","","","","","","",""
"Niji Sushi","","","","","43.7675412","-79.271412","sushi","","","","","","","","","",""
"Kathy's Grill","1158 Kennedy Road","","","M1P 2L1","43.7527403","-79.276567","greek;burger","+1-647-341-5555","","","","","","","","","yes"
"Flippers Fish House","","","","","43.7509559","-79.2762369","seafood","","","","","","","","","",""
"Kim Kim","","","","","43.7537907","-79.2770578","indian","","","","","","","","","",""
"Supreme Restaurant & Bar","","","","","43.7685093","-79.2666501","","","","","","","","","","",""
"Roll N Bowl Korean & Japanese Cuisine","1157 Ellesmere Road","Scarborough","Ontario","M1P2X6","43.7671642","-79.2704426","japanese;korean","+1-416-701-1212","https://rollnbowlscarborough.ca/","","Mo-Su 11:30-22:00; Tu off; Fr,Sa 11:30-22:30","","","","","",""
"Kaka","","","","","43.752396","-79.2623799","sushi","","","","","","","","","",""
"Kaka Restaurant","","","","","43.7523674","-79.2623727","sushi","","","","","","","","","",""
"Asian Legend","","","","","43.7883678","-79.2672011","","","","","","","","","","",""
"Jesse Jr. Restaurant","","","","","43.7871917","-79.26883","","","","","","","","","","",""
"Oriental Kitchen","","","","","43.7883922","-79.2667164","","","","","","","","","","",""
"The Pearl of Asia","","","","","43.7883705","-79.268361","","","","","","","","","","",""
"Oxland Restaurant","","","","","43.7844624","-79.2776645","chinese","","","","","","","","","",""
"May Yan Seafood Restaurant 陸福海鮮酒家","4227 Sheppard Avenue East","Scarborough","Ontario","M1S 5H5","43.7844904","-79.2777145","chinese","+1-416-297-1398","https://www.mayyanseafood.com/","","Mo-Su 11:30-22:00","","","","","",""
"Green Bamboo Vietnamese Cuisine","","","","","43.7852202","-79.2775429","vietnamese","+1-416-292-7961","","","","","","","","",""
"The Only Cuisine","","","","","43.7867019","-79.2708764","","","","","","","","","","",""
"Dumpling Restaurant","Sheppard Avenue East","Toronto","Ontario","","43.7868935","-79.2701077","chinese","+14162938321","","","","","outside","","","yes","yes"
"Gourmet Malaysia Restaurant","4466 Sheppard Avenue East","","","M1S 1V2","43.7884237","-79.2665722","malaysian","+1-647-764-1188","http://www.gourmetmalaysia.ca","","","","","wlan","","",""
"Perfect Chinese Restaurant","","","","","43.7877592","-79.2703122","chinese","","","","Mo-Su 00:00-00:00","","","","","",""
"East court & Mike BBQ","4400 Sheppard Avenue East","Scarborough","Ontario","M1S 5H9","43.787971","-79.2698835","chinese","+1 416 609 2388","","","Th-Tu 10:00-20:00","","","","","",""
"desimane","4445 Sheppard Avenue East","Scarborough","ON","M1S 1V3","43.7874641","-79.2670827","indian","+1 416-854-2626","http://www.desimanesangeetha.ca/","","","","","","","",""
"King's Vegetarian Food","Sheppard Avenue East","Toronto","Ontario","","43.7867318","-79.2700358","","","","","","","","","","",""
"Unplugged Cafe & Bar","4271 Sheppard Avenue East","Toronto","ontario","M1S 1T6","43.7855988","-79.2756945","indian;american;coffee_shop;ice_cream","+1-437-444-4445","UNPOLUGGEDCAFEANDBAR.CA","","24/7","","","","","",""
"","8 Glen Watford Drive","","","M1S2C1","43.7872125","-79.2766394","malaysian","+16473407099","","","Th-Su 11:00-19:00","","","","","",""
"Patty King","","Toronto","","","43.773548","-79.2680335","","","","","","","","","","",""
"Canyon Creek","","Toronto","","","43.777028","-79.2618555","","","","","","","","","","",""
"Panagio's","","","","","43.7922103","-79.2602505","breakfast","","","","","","","","","",""
"Blooming Garden Chinese Cuisine","","","","","43.809067","-79.2681337","chinese","","","","","","","","","",""
"Casa Deluz Banquet Hall","","","","","43.8092436","-79.2681808","chinese","","","","","","","","","",""
"Xe Lua","","","","","43.8091041","-79.2695273","vietnamese","","","","","","","","","",""
"Haidilao Hot Pot","1571 Sandhurst Circle","","","","43.8087474","-79.2683143","chinese;hotpot","","","","Mo-Su 11:00-04:00","","","","","",""
"Magic Noodle","1571 Sandhurst Circle","","","","43.8084511","-79.2694576","","+14163358699","www.magicnoodle.com","","Mo-Su 09:00-23:00","","","","","",""
"Canton Kitchen","","","","","43.7979874","-79.2711443","chinese","","","","","","","","","",""
"Ginger and Onion Cuisine","240 Alton Towers Circle","Scarborough","ON","M1V 4P2","43.8261554","-79.2774964","chinese","+1-647-350-7730","https://gingerandonioncuisine.ca/","","08:30-21:00","","","wlan","","",""
"Pho Day","","","","","43.8101483","-79.269619","","","","","","","","","","",""
"New Da Fu Seafood Cuisine","","","","","43.8317718","-79.2671167","chinese","","","","","","","","","",""
"Sumilicious Smoked Meat - Deli","5631 Steeles Avenue East","","","M1V 5P6","43.8323217","-79.2673134","deli","","","","Tu-Su 11:00-21:00","","","","","",""
"Red Rose Garden","","","","","43.8696249","-79.2767482","chinese","","","","","","","","","","yes"
"Al Dente Italian Restaurant","39 Main Street Markham North","Markham","","","43.8753737","-79.2600166","italian","+1-905-471-5670","","","","","","","","",""
"Inspire","144 Main Street Markham North","","","","43.8792163","-79.2613436","","","https://www.inspirerestaurant.com/","","","","","","","",""
"Main's Mansion Restaurant & Bar","144 Main Street Markham North","","","","43.8790713","-79.2613006","","","https://mainsmansion.com/","","","","","","","",""
"Peter's Dining Steak & Seafood","5701 Highway 7","","","","43.870829","-79.2682576","","","","","","","","","","",""
"Lemon Bistro","76 Main Street Markham North","","","","43.8768984","-79.2607405","","","","","","","","","","",""
"Osaka Sushi","5762 Highway 7","","","","43.8722044","-79.267054","japanese","","https://markhamosakasushi.ca/","","","","","","","",""
"On 7 Bar & Grill","","","","","43.8718111","-79.269354","","","","","","","","","","",""
"Bombay Grill","","","","","43.8720504","-79.2682978","indian","","","","","","","","","",""
"Rawlicious","","","","","43.8781453","-79.2610139","","","","","","","","","","",""
"Uncle Joe's Family Restaurant","124 Main Street","Markham","","L3P 7T8","43.8784101","-79.2610702","","+1-905-294-2249","https://unclejoesfamilyrestaurant.com/","","Mo 10:00-21:00, We-Fr 10:00-21:00, Sa-Su 09:00-22:00","","","","","",""
"Liberty Burgers & Wings","","","","","43.8788899","-79.261352","burger","","","","","","","","","",""
"Main Sushi","144 Main Street Markham North","Markham","","L3P 5T3","43.8791577","-79.2613386","sushi","+1-905-201-6218","https://www.mainsushi.ca/","","Su-Th 11:00-22:00; Fr-Sa 11:00-23:00","","","","","",""
"Nostos Bar & Grill","","","","","43.7526113","-79.2543444","greek","","","","","","","","","",""
"Merigold Restaurant","","","","","43.7532791","-79.2543512","caribbean","","","","","","","","","",""
"Ahmutha Surabi","","","","","43.7532944","-79.2542952","indian","","","","","","","","","",""
"All-Star Wings & Ribs","","","","","43.7730825","-79.2512864","","","","","","","","","","",""
"St Andrews Fish & Chips","","","","","43.7714627","-79.2527038","fish_and_chips","","","","","","","","","",""
"St. Louis Bar & Grill","55 Town Centre Court","Scarborough","","M1P 4X4","43.7740778","-79.2537986","chicken","+1-416-849-9418","","","Mo-Su 11:00-01:00","","","","","",""
"The Roti Hut","351 Pitfield Road","Scarborough","","M1S 3E5","43.786862","-79.2586267","caribbean","+1-416-298-4153","https://www.therotihut.com/","info@therotihut.com","Mo-Sa 11:00-22:00","","","","","",""
"Kwan Dim Sum","","","","","43.7749186","-79.2570094","chinese","","","","","","","","","",""
"Scaddabush","580 Progress Avenue","Toronto","","","43.7776162","-79.2542572","italian","","","","","","","","","",""
"Jack Astor's","580 Progress Avenue","Toronto","","","43.7774561","-79.2542466","american","+1-416-296-0965","http://jackastors.com/","","Su-Th 11:30-23:00; Fr-Sa 11:30-01:00","yes","","","","",""
"Babu Catering","4800 Sheppard Avenue East","Scarborough","","","43.792016","-79.251007","sri_lankan","","","","","","","","","",""
"","4810 Sheppard Avenue East","","","M1S4N6","43.7916164","-79.2508876","caribbean","+14164121200","http://monasroti.com","","Mo-Sa 10:00-20:00","","","","","",""
"","5210 Finch Avenue East","","","M1S4Z7","43.8103284","-79.2569477","indian","+14163320944","http://samosa-king.shop","","Mo-Su 09:00-21:00","","","","","",""
"Wow! Sushi Japanese Cuisine","","","","","43.8491491","-79.2534868","japanese","","","","","","","","","",""
"India Sweets & Restaurant","","","","","43.8407323","-79.2527063","indian","+1-905-472-0473","","","","","","","","","yes"
"Hakka Legend","7393 Markham Road","Markham","Ontario","L3S 0B5","43.8487371","-79.2533171","chinese;hakka;asian","+1-905-294-5777","https://www.hakkalegend.com","","Mo-Su 11:00-22:00","","","","","",""
"Kelsey's","","","","","43.8536635","-79.255509","american","","","","","","","","","",""
"Tangerine Asian Cuisine","7690 Markham Road","Markham","","","43.8531297","-79.2556468","asian","+1-905-472-2100;+1-905-472-2190","http://www.tangerineasiancuisine.com/","","Mo-Th 11:00-22:00; Fr-Sa 11:00-23:00; Su 12:00-22:00","","","","","",""
"Paramount","","","","","43.853624","-79.2561463","","","","","","","","","","",""
"Mecca Halal Pizza & Wings","","","","","43.8551733","-79.2569067","pizza","+1-905-294-2121","","","","","","","","",""
"Golden China","","","","","43.85521","-79.2568651","chinese","","","","","","","","","",""
"Maharaja","","","","","43.8552526","-79.2568061","","","","","","","","","","",""
"Kara Mia","7690 Markham Road","Markham","Ontario","L3S 4S1","43.8531543","-79.2559426","italian","+1-905-201-5672","https://www.karamia.ca/","info@karamia.ca","Mo-Th 12:00-21:30, Fr 16:00-22:30, Sa 14:00-22:30, Su 14:00-21:30","","","","","",""
"M.Y. Restaurant","","","","","43.8749256","-79.2592236","chinese;thai","","https://www.my-markham.com/","","","","","","","",""
"Southside Restaurant & Bar","","","","","43.8743021","-79.2565781","","","","","","","","","","",""